{
    "th_data": [
        {
            "zip_code": 10200,
            "province_th": "กรุงเทพมหานคร",
            "province_en": "Bangkok"
        },
        {
            "zip_code": 10300,
            "province_th": "กรุงเทพมหานคร",
            "province_en": "Bangkok"
        },
        {
            "zip_code": 10530,
            "province_th": "กรุงเทพมหานคร",
            "province_en": "Bangkok"
        },
        {
            "zip_code": 10500,
            "province_th": "กรุงเทพมหานคร",
            "province_en": "Bangkok"
        },
        {
            "zip_code": 10220,
            "province_th": "กรุงเทพมหานคร",
            "province_en": "Bangkok"
        },
        {
            "zip_code": 10240,
            "province_th": "กรุงเทพมหานคร",
            "province_en": "Bangkok"
        },
        {
            "zip_code": 10330,
            "province_th": "กรุงเทพมหานคร",
            "province_en": "Bangkok"
        },
        {
            "zip_code": 10100,
            "province_th": "กรุงเทพมหานคร",
            "province_en": "Bangkok"
        },
        {
            "zip_code": 10260,
            "province_th": "กรุงเทพมหานคร",
            "province_en": "Bangkok"
        },
        {
            "zip_code": 10510,
            "province_th": "กรุงเทพมหานคร",
            "province_en": "Bangkok"
        },
        {
            "zip_code": 10520,
            "province_th": "กรุงเทพมหานคร",
            "province_en": "Bangkok"
        },
        {
            "zip_code": 10120,
            "province_th": "กรุงเทพมหานคร",
            "province_en": "Bangkok"
        },
        {
            "zip_code": 10400,
            "province_th": "กรุงเทพมหานคร",
            "province_en": "Bangkok"
        },
        {
            "zip_code": 10600,
            "province_th": "กรุงเทพมหานคร",
            "province_en": "Bangkok"
        },
        {
            "zip_code": 10310,
            "province_th": "กรุงเทพมหานคร",
            "province_en": "Bangkok"
        },
        {
            "zip_code": 10170,
            "province_th": "กรุงเทพมหานคร",
            "province_en": "Bangkok"
        },
        {
            "zip_code": 10700,
            "province_th": "กรุงเทพมหานคร",
            "province_en": "Bangkok"
        },
        {
            "zip_code": 10150,
            "province_th": "กรุงเทพมหานคร",
            "province_en": "Bangkok"
        },
        {
            "zip_code": 10160,
            "province_th": "กรุงเทพมหานคร",
            "province_en": "Bangkok"
        },
        {
            "zip_code": 10140,
            "province_th": "กรุงเทพมหานคร",
            "province_en": "Bangkok"
        },
        {
            "zip_code": 10800,
            "province_th": "กรุงเทพมหานคร",
            "province_en": "Bangkok"
        },
        {
            "zip_code": 10900,
            "province_th": "กรุงเทพมหานคร",
            "province_en": "Bangkok"
        },
        {
            "zip_code": 10250,
            "province_th": "กรุงเทพมหานคร",
            "province_en": "Bangkok"
        },
        {
            "zip_code": 10110,
            "province_th": "กรุงเทพมหานคร",
            "province_en": "Bangkok"
        },
        {
            "zip_code": 10210,
            "province_th": "กรุงเทพมหานคร",
            "province_en": "Bangkok"
        },
        {
            "zip_code": 10230,
            "province_th": "กรุงเทพมหานคร",
            "province_en": "Bangkok"
        },
        {
            "zip_code": 10270,
            "province_th": "สมุทรปราการ",
            "province_en": "Samut Prakan"
        },
        {
            "zip_code": 10280,
            "province_th": "สมุทรปราการ",
            "province_en": "Samut Prakan"
        },
        {
            "zip_code": 10560,
            "province_th": "สมุทรปราการ",
            "province_en": "Samut Prakan"
        },
        {
            "zip_code": 10550,
            "province_th": "สมุทรปราการ",
            "province_en": "Samut Prakan"
        },
        {
            "zip_code": 10540,
            "province_th": "สมุทรปราการ",
            "province_en": "Samut Prakan"
        },
        {
            "zip_code": 10130,
            "province_th": "สมุทรปราการ",
            "province_en": "Samut Prakan"
        },
        {
            "zip_code": 10290,
            "province_th": "สมุทรปราการ",
            "province_en": "Samut Prakan"
        },
        {
            "zip_code": 11000,
            "province_th": "นนทบุรี",
            "province_en": "Nonthaburi"
        },
        {
            "zip_code": 11130,
            "province_th": "นนทบุรี",
            "province_en": "Nonthaburi"
        },
        {
            "zip_code": 11140,
            "province_th": "นนทบุรี",
            "province_en": "Nonthaburi"
        },
        {
            "zip_code": 11110,
            "province_th": "นนทบุรี",
            "province_en": "Nonthaburi"
        },
        {
            "zip_code": 11150,
            "province_th": "นนทบุรี",
            "province_en": "Nonthaburi"
        },
        {
            "zip_code": 11120,
            "province_th": "นนทบุรี",
            "province_en": "Nonthaburi"
        },
        {
            "zip_code": 12000,
            "province_th": "ปทุมธานี",
            "province_en": "Pathum Thani"
        },
        {
            "zip_code": 12120,
            "province_th": "ปทุมธานี",
            "province_en": "Pathum Thani"
        },
        {
            "zip_code": 12130,
            "province_th": "ปทุมธานี",
            "province_en": "Pathum Thani"
        },
        {
            "zip_code": 12110,
            "province_th": "ปทุมธานี",
            "province_en": "Pathum Thani"
        },
        {
            "zip_code": 12170,
            "province_th": "ปทุมธานี",
            "province_en": "Pathum Thani"
        },
        {
            "zip_code": 12140,
            "province_th": "ปทุมธานี",
            "province_en": "Pathum Thani"
        },
        {
            "zip_code": 12150,
            "province_th": "ปทุมธานี",
            "province_en": "Pathum Thani"
        },
        {
            "zip_code": 12160,
            "province_th": "ปทุมธานี",
            "province_en": "Pathum Thani"
        },
        {
            "zip_code": 13000,
            "province_th": "พระนครศรีอยุธยา",
            "province_en": "Phra Nakhon Si Ayutthaya"
        },
        {
            "zip_code": 13130,
            "province_th": "พระนครศรีอยุธยา",
            "province_en": "Phra Nakhon Si Ayutthaya"
        },
        {
            "zip_code": 13260,
            "province_th": "พระนครศรีอยุธยา",
            "province_en": "Phra Nakhon Si Ayutthaya"
        },
        {
            "zip_code": 13190,
            "province_th": "พระนครศรีอยุธยา",
            "province_en": "Phra Nakhon Si Ayutthaya"
        },
        {
            "zip_code": 13290,
            "province_th": "พระนครศรีอยุธยา",
            "province_en": "Phra Nakhon Si Ayutthaya"
        },
        {
            "zip_code": 13250,
            "province_th": "พระนครศรีอยุธยา",
            "province_en": "Phra Nakhon Si Ayutthaya"
        },
        {
            "zip_code": 13160,
            "province_th": "พระนครศรีอยุธยา",
            "province_en": "Phra Nakhon Si Ayutthaya"
        },
        {
            "zip_code": 13180,
            "province_th": "พระนครศรีอยุธยา",
            "province_en": "Phra Nakhon Si Ayutthaya"
        },
        {
            "zip_code": 13170,
            "province_th": "พระนครศรีอยุธยา",
            "province_en": "Phra Nakhon Si Ayutthaya"
        },
        {
            "zip_code": 13220,
            "province_th": "พระนครศรีอยุธยา",
            "province_en": "Phra Nakhon Si Ayutthaya"
        },
        {
            "zip_code": 13120,
            "province_th": "พระนครศรีอยุธยา",
            "province_en": "Phra Nakhon Si Ayutthaya"
        },
        {
            "zip_code": 13280,
            "province_th": "พระนครศรีอยุธยา",
            "province_en": "Phra Nakhon Si Ayutthaya"
        },
        {
            "zip_code": 13140,
            "province_th": "พระนครศรีอยุธยา",
            "province_en": "Phra Nakhon Si Ayutthaya"
        },
        {
            "zip_code": 13230,
            "province_th": "พระนครศรีอยุธยา",
            "province_en": "Phra Nakhon Si Ayutthaya"
        },
        {
            "zip_code": 13110,
            "province_th": "พระนครศรีอยุธยา",
            "province_en": "Phra Nakhon Si Ayutthaya"
        },
        {
            "zip_code": 13270,
            "province_th": "พระนครศรีอยุธยา",
            "province_en": "Phra Nakhon Si Ayutthaya"
        },
        {
            "zip_code": 13210,
            "province_th": "พระนครศรีอยุธยา",
            "province_en": "Phra Nakhon Si Ayutthaya"
        },
        {
            "zip_code": 13150,
            "province_th": "พระนครศรีอยุธยา",
            "province_en": "Phra Nakhon Si Ayutthaya"
        },
        {
            "zip_code": 13240,
            "province_th": "พระนครศรีอยุธยา",
            "province_en": "Phra Nakhon Si Ayutthaya"
        },
        {
            "zip_code": 14000,
            "province_th": "อ่างทอง",
            "province_en": "Ang Thong"
        },
        {
            "zip_code": 14140,
            "province_th": "อ่างทอง",
            "province_en": "Ang Thong"
        },
        {
            "zip_code": 14130,
            "province_th": "อ่างทอง",
            "province_en": "Ang Thong"
        },
        {
            "zip_code": 14120,
            "province_th": "อ่างทอง",
            "province_en": "Ang Thong"
        },
        {
            "zip_code": 14150,
            "province_th": "อ่างทอง",
            "province_en": "Ang Thong"
        },
        {
            "zip_code": 14110,
            "province_th": "อ่างทอง",
            "province_en": "Ang Thong"
        },
        {
            "zip_code": 14160,
            "province_th": "อ่างทอง",
            "province_en": "Ang Thong"
        },
        {
            "zip_code": 15000,
            "province_th": "ลพบุรี",
            "province_en": "Loburi"
        },
        {
            "zip_code": 15210,
            "province_th": "ลพบุรี",
            "province_en": "Loburi"
        },
        {
            "zip_code": 15140,
            "province_th": "ลพบุรี",
            "province_en": "Loburi"
        },
        {
            "zip_code": 15220,
            "province_th": "ลพบุรี",
            "province_en": "Loburi"
        },
        {
            "zip_code": 18220,
            "province_th": "ลพบุรี",
            "province_en": "Loburi"
        },
        {
            "zip_code": 15120,
            "province_th": "ลพบุรี",
            "province_en": "Loburi"
        },
        {
            "zip_code": 15130,
            "province_th": "ลพบุรี",
            "province_en": "Loburi"
        },
        {
            "zip_code": 15230,
            "province_th": "ลพบุรี",
            "province_en": "Loburi"
        },
        {
            "zip_code": 15190,
            "province_th": "ลพบุรี",
            "province_en": "Loburi"
        },
        {
            "zip_code": 15150,
            "province_th": "ลพบุรี",
            "province_en": "Loburi"
        },
        {
            "zip_code": 15180,
            "province_th": "ลพบุรี",
            "province_en": "Loburi"
        },
        {
            "zip_code": 15110,
            "province_th": "ลพบุรี",
            "province_en": "Loburi"
        },
        {
            "zip_code": 15240,
            "province_th": "ลพบุรี",
            "province_en": "Loburi"
        },
        {
            "zip_code": 15250,
            "province_th": "ลพบุรี",
            "province_en": "Loburi"
        },
        {
            "zip_code": 15170,
            "province_th": "ลพบุรี",
            "province_en": "Loburi"
        },
        {
            "zip_code": 16000,
            "province_th": "สิงห์บุรี",
            "province_en": "Sing Buri"
        },
        {
            "zip_code": 16130,
            "province_th": "สิงห์บุรี",
            "province_en": "Sing Buri"
        },
        {
            "zip_code": 16150,
            "province_th": "สิงห์บุรี",
            "province_en": "Sing Buri"
        },
        {
            "zip_code": 16120,
            "province_th": "สิงห์บุรี",
            "province_en": "Sing Buri"
        },
        {
            "zip_code": 16160,
            "province_th": "สิงห์บุรี",
            "province_en": "Sing Buri"
        },
        {
            "zip_code": 16140,
            "province_th": "สิงห์บุรี",
            "province_en": "Sing Buri"
        },
        {
            "zip_code": 16110,
            "province_th": "สิงห์บุรี",
            "province_en": "Sing Buri"
        },
        {
            "zip_code": 17000,
            "province_th": "ชัยนาท",
            "province_en": "Chai Nat"
        },
        {
            "zip_code": 17110,
            "province_th": "ชัยนาท",
            "province_en": "Chai Nat"
        },
        {
            "zip_code": 17170,
            "province_th": "ชัยนาท",
            "province_en": "Chai Nat"
        },
        {
            "zip_code": 17120,
            "province_th": "ชัยนาท",
            "province_en": "Chai Nat"
        },
        {
            "zip_code": 17150,
            "province_th": "ชัยนาท",
            "province_en": "Chai Nat"
        },
        {
            "zip_code": 17140,
            "province_th": "ชัยนาท",
            "province_en": "Chai Nat"
        },
        {
            "zip_code": 17130,
            "province_th": "ชัยนาท",
            "province_en": "Chai Nat"
        },
        {
            "zip_code": 17160,
            "province_th": "ชัยนาท",
            "province_en": "Chai Nat"
        },
        {
            "zip_code": 18000,
            "province_th": "สระบุรี",
            "province_en": "Saraburi"
        },
        {
            "zip_code": 18110,
            "province_th": "สระบุรี",
            "province_en": "Saraburi"
        },
        {
            "zip_code": 18260,
            "province_th": "สระบุรี",
            "province_en": "Saraburi"
        },
        {
            "zip_code": 18140,
            "province_th": "สระบุรี",
            "province_en": "Saraburi"
        },
        {
            "zip_code": 18250,
            "province_th": "สระบุรี",
            "province_en": "Saraburi"
        },
        {
            "zip_code": 18230,
            "province_th": "สระบุรี",
            "province_en": "Saraburi"
        },
        {
            "zip_code": 18150,
            "province_th": "สระบุรี",
            "province_en": "Saraburi"
        },
        {
            "zip_code": 18170,
            "province_th": "สระบุรี",
            "province_en": "Saraburi"
        },
        {
            "zip_code": 18130,
            "province_th": "สระบุรี",
            "province_en": "Saraburi"
        },
        {
            "zip_code": 18270,
            "province_th": "สระบุรี",
            "province_en": "Saraburi"
        },
        {
            "zip_code": 18210,
            "province_th": "สระบุรี",
            "province_en": "Saraburi"
        },
        {
            "zip_code": 18190,
            "province_th": "สระบุรี",
            "province_en": "Saraburi"
        },
        {
            "zip_code": 18120,
            "province_th": "สระบุรี",
            "province_en": "Saraburi"
        },
        {
            "zip_code": 18160,
            "province_th": "สระบุรี",
            "province_en": "Saraburi"
        },
        {
            "zip_code": 18180,
            "province_th": "สระบุรี",
            "province_en": "Saraburi"
        },
        {
            "zip_code": 18240,
            "province_th": "สระบุรี",
            "province_en": "Saraburi"
        },
        {
            "zip_code": 20000,
            "province_th": "ชลบุรี",
            "province_en": "Chon Buri"
        },
        {
            "zip_code": 20130,
            "province_th": "ชลบุรี",
            "province_en": "Chon Buri"
        },
        {
            "zip_code": 20170,
            "province_th": "ชลบุรี",
            "province_en": "Chon Buri"
        },
        {
            "zip_code": 20220,
            "province_th": "ชลบุรี",
            "province_en": "Chon Buri"
        },
        {
            "zip_code": 20190,
            "province_th": "ชลบุรี",
            "province_en": "Chon Buri"
        },
        {
            "zip_code": 20150,
            "province_th": "ชลบุรี",
            "province_en": "Chon Buri"
        },
        {
            "zip_code": 20160,
            "province_th": "ชลบุรี",
            "province_en": "Chon Buri"
        },
        {
            "zip_code": 20140,
            "province_th": "ชลบุรี",
            "province_en": "Chon Buri"
        },
        {
            "zip_code": 20110,
            "province_th": "ชลบุรี",
            "province_en": "Chon Buri"
        },
        {
            "zip_code": 20230,
            "province_th": "ชลบุรี",
            "province_en": "Chon Buri"
        },
        {
            "zip_code": 20120,
            "province_th": "ชลบุรี",
            "province_en": "Chon Buri"
        },
        {
            "zip_code": 20180,
            "province_th": "ชลบุรี",
            "province_en": "Chon Buri"
        },
        {
            "zip_code": 20250,
            "province_th": "ชลบุรี",
            "province_en": "Chon Buri"
        },
        {
            "zip_code": 20270,
            "province_th": "ชลบุรี",
            "province_en": "Chon Buri"
        },
        {
            "zip_code": 20240,
            "province_th": "ชลบุรี",
            "province_en": "Chon Buri"
        },
        {
            "zip_code": 21000,
            "province_th": "ระยอง",
            "province_en": "Rayong"
        },
        {
            "zip_code": 21160,
            "province_th": "ระยอง",
            "province_en": "Rayong"
        },
        {
            "zip_code": 21100,
            "province_th": "ระยอง",
            "province_en": "Rayong"
        },
        {
            "zip_code": 21150,
            "province_th": "ระยอง",
            "province_en": "Rayong"
        },
        {
            "zip_code": 21130,
            "province_th": "ระยอง",
            "province_en": "Rayong"
        },
        {
            "zip_code": 21110,
            "province_th": "ระยอง",
            "province_en": "Rayong"
        },
        {
            "zip_code": 21190,
            "province_th": "ระยอง",
            "province_en": "Rayong"
        },
        {
            "zip_code": 22160,
            "province_th": "ระยอง",
            "province_en": "Rayong"
        },
        {
            "zip_code": 21170,
            "province_th": "ระยอง",
            "province_en": "Rayong"
        },
        {
            "zip_code": 21210,
            "province_th": "ระยอง",
            "province_en": "Rayong"
        },
        {
            "zip_code": 21120,
            "province_th": "ระยอง",
            "province_en": "Rayong"
        },
        {
            "zip_code": 21140,
            "province_th": "ระยอง",
            "province_en": "Rayong"
        },
        {
            "zip_code": 21180,
            "province_th": "ระยอง",
            "province_en": "Rayong"
        },
        {
            "zip_code": 22000,
            "province_th": "จันทบุรี",
            "province_en": "Chanthaburi"
        },
        {
            "zip_code": 22110,
            "province_th": "จันทบุรี",
            "province_en": "Chanthaburi"
        },
        {
            "zip_code": 22150,
            "province_th": "จันทบุรี",
            "province_en": "Chanthaburi"
        },
        {
            "zip_code": 22120,
            "province_th": "จันทบุรี",
            "province_en": "Chanthaburi"
        },
        {
            "zip_code": 22170,
            "province_th": "จันทบุรี",
            "province_en": "Chanthaburi"
        },
        {
            "zip_code": 22140,
            "province_th": "จันทบุรี",
            "province_en": "Chanthaburi"
        },
        {
            "zip_code": 22130,
            "province_th": "จันทบุรี",
            "province_en": "Chanthaburi"
        },
        {
            "zip_code": 22190,
            "province_th": "จันทบุรี",
            "province_en": "Chanthaburi"
        },
        {
            "zip_code": 22180,
            "province_th": "จันทบุรี",
            "province_en": "Chanthaburi"
        },
        {
            "zip_code": 22210,
            "province_th": "จันทบุรี",
            "province_en": "Chanthaburi"
        },
        {
            "zip_code": 23000,
            "province_th": "ตราด",
            "province_en": "Trat"
        },
        {
            "zip_code": 23110,
            "province_th": "ตราด",
            "province_en": "Trat"
        },
        {
            "zip_code": 23130,
            "province_th": "ตราด",
            "province_en": "Trat"
        },
        {
            "zip_code": 23150,
            "province_th": "ตราด",
            "province_en": "Trat"
        },
        {
            "zip_code": 23140,
            "province_th": "ตราด",
            "province_en": "Trat"
        },
        {
            "zip_code": 23120,
            "province_th": "ตราด",
            "province_en": "Trat"
        },
        {
            "zip_code": 23170,
            "province_th": "ตราด",
            "province_en": "Trat"
        },
        {
            "zip_code": 24000,
            "province_th": "ฉะเชิงเทรา",
            "province_en": "Chachoengsao"
        },
        {
            "zip_code": 24110,
            "province_th": "ฉะเชิงเทรา",
            "province_en": "Chachoengsao"
        },
        {
            "zip_code": 24150,
            "province_th": "ฉะเชิงเทรา",
            "province_en": "Chachoengsao"
        },
        {
            "zip_code": 24170,
            "province_th": "ฉะเชิงเทรา",
            "province_en": "Chachoengsao"
        },
        {
            "zip_code": 24130,
            "province_th": "ฉะเชิงเทรา",
            "province_en": "Chachoengsao"
        },
        {
            "zip_code": 24180,
            "province_th": "ฉะเชิงเทรา",
            "province_en": "Chachoengsao"
        },
        {
            "zip_code": 24140,
            "province_th": "ฉะเชิงเทรา",
            "province_en": "Chachoengsao"
        },
        {
            "zip_code": 24120,
            "province_th": "ฉะเชิงเทรา",
            "province_en": "Chachoengsao"
        },
        {
            "zip_code": 24160,
            "province_th": "ฉะเชิงเทรา",
            "province_en": "Chachoengsao"
        },
        {
            "zip_code": 24190,
            "province_th": "ฉะเชิงเทรา",
            "province_en": "Chachoengsao"
        },
        {
            "zip_code": 25000,
            "province_th": "ปราจีนบุรี",
            "province_en": "Prachin Buri"
        },
        {
            "zip_code": 25230,
            "province_th": "ปราจีนบุรี",
            "province_en": "Prachin Buri"
        },
        {
            "zip_code": 25110,
            "province_th": "ปราจีนบุรี",
            "province_en": "Prachin Buri"
        },
        {
            "zip_code": 25240,
            "province_th": "ปราจีนบุรี",
            "province_en": "Prachin Buri"
        },
        {
            "zip_code": 25220,
            "province_th": "ปราจีนบุรี",
            "province_en": "Prachin Buri"
        },
        {
            "zip_code": 25150,
            "province_th": "ปราจีนบุรี",
            "province_en": "Prachin Buri"
        },
        {
            "zip_code": 25130,
            "province_th": "ปราจีนบุรี",
            "province_en": "Prachin Buri"
        },
        {
            "zip_code": 25140,
            "province_th": "ปราจีนบุรี",
            "province_en": "Prachin Buri"
        },
        {
            "zip_code": 25190,
            "province_th": "ปราจีนบุรี",
            "province_en": "Prachin Buri"
        },
        {
            "zip_code": 26000,
            "province_th": "นครนายก",
            "province_en": "Nakhon Nayok"
        },
        {
            "zip_code": 26130,
            "province_th": "นครนายก",
            "province_en": "Nakhon Nayok"
        },
        {
            "zip_code": 26110,
            "province_th": "นครนายก",
            "province_en": "Nakhon Nayok"
        },
        {
            "zip_code": 26120,
            "province_th": "นครนายก",
            "province_en": "Nakhon Nayok"
        },
        {
            "zip_code": 27000,
            "province_th": "สระแก้ว",
            "province_en": "Sa Kaeo"
        },
        {
            "zip_code": 27260,
            "province_th": "สระแก้ว",
            "province_en": "Sa Kaeo"
        },
        {
            "zip_code": 27180,
            "province_th": "สระแก้ว",
            "province_en": "Sa Kaeo"
        },
        {
            "zip_code": 27210,
            "province_th": "สระแก้ว",
            "province_en": "Sa Kaeo"
        },
        {
            "zip_code": 27160,
            "province_th": "สระแก้ว",
            "province_en": "Sa Kaeo"
        },
        {
            "zip_code": 27120,
            "province_th": "สระแก้ว",
            "province_en": "Sa Kaeo"
        },
        {
            "zip_code": 27250,
            "province_th": "สระแก้ว",
            "province_en": "Sa Kaeo"
        },
        {
            "zip_code": 30000,
            "province_th": "นครราชสีมา",
            "province_en": "Nakhon Ratchasima"
        },
        {
            "zip_code": 30310,
            "province_th": "นครราชสีมา",
            "province_en": "Nakhon Ratchasima"
        },
        {
            "zip_code": 30280,
            "province_th": "นครราชสีมา",
            "province_en": "Nakhon Ratchasima"
        },
        {
            "zip_code": 30250,
            "province_th": "นครราชสีมา",
            "province_en": "Nakhon Ratchasima"
        },
        {
            "zip_code": 30330,
            "province_th": "นครราชสีมา",
            "province_en": "Nakhon Ratchasima"
        },
        {
            "zip_code": 30260,
            "province_th": "นครราชสีมา",
            "province_en": "Nakhon Ratchasima"
        },
        {
            "zip_code": 30350,
            "province_th": "นครราชสีมา",
            "province_en": "Nakhon Ratchasima"
        },
        {
            "zip_code": 30230,
            "province_th": "นครราชสีมา",
            "province_en": "Nakhon Ratchasima"
        },
        {
            "zip_code": 30190,
            "province_th": "นครราชสีมา",
            "province_en": "Nakhon Ratchasima"
        },
        {
            "zip_code": 30210,
            "province_th": "นครราชสีมา",
            "province_en": "Nakhon Ratchasima"
        },
        {
            "zip_code": 36220,
            "province_th": "นครราชสีมา",
            "province_en": "Nakhon Ratchasima"
        },
        {
            "zip_code": 30220,
            "province_th": "นครราชสีมา",
            "province_en": "Nakhon Ratchasima"
        },
        {
            "zip_code": 30160,
            "province_th": "นครราชสีมา",
            "province_en": "Nakhon Ratchasima"
        },
        {
            "zip_code": 30240,
            "province_th": "นครราชสีมา",
            "province_en": "Nakhon Ratchasima"
        },
        {
            "zip_code": 30290,
            "province_th": "นครราชสีมา",
            "province_en": "Nakhon Ratchasima"
        },
        {
            "zip_code": 30120,
            "province_th": "นครราชสีมา",
            "province_en": "Nakhon Ratchasima"
        },
        {
            "zip_code": 30180,
            "province_th": "นครราชสีมา",
            "province_en": "Nakhon Ratchasima"
        },
        {
            "zip_code": 30150,
            "province_th": "นครราชสีมา",
            "province_en": "Nakhon Ratchasima"
        },
        {
            "zip_code": 30110,
            "province_th": "นครราชสีมา",
            "province_en": "Nakhon Ratchasima"
        },
        {
            "zip_code": 30270,
            "province_th": "นครราชสีมา",
            "province_en": "Nakhon Ratchasima"
        },
        {
            "zip_code": 30170,
            "province_th": "นครราชสีมา",
            "province_en": "Nakhon Ratchasima"
        },
        {
            "zip_code": 30380,
            "province_th": "นครราชสีมา",
            "province_en": "Nakhon Ratchasima"
        },
        {
            "zip_code": 30140,
            "province_th": "นครราชสีมา",
            "province_en": "Nakhon Ratchasima"
        },
        {
            "zip_code": 30340,
            "province_th": "นครราชสีมา",
            "province_en": "Nakhon Ratchasima"
        },
        {
            "zip_code": 30130,
            "province_th": "นครราชสีมา",
            "province_en": "Nakhon Ratchasima"
        },
        {
            "zip_code": 30320,
            "province_th": "นครราชสีมา",
            "province_en": "Nakhon Ratchasima"
        },
        {
            "zip_code": 30410,
            "province_th": "นครราชสีมา",
            "province_en": "Nakhon Ratchasima"
        },
        {
            "zip_code": 30440,
            "province_th": "นครราชสีมา",
            "province_en": "Nakhon Ratchasima"
        },
        {
            "zip_code": 30360,
            "province_th": "นครราชสีมา",
            "province_en": "Nakhon Ratchasima"
        },
        {
            "zip_code": 30370,
            "province_th": "นครราชสีมา",
            "province_en": "Nakhon Ratchasima"
        },
        {
            "zip_code": 30430,
            "province_th": "นครราชสีมา",
            "province_en": "Nakhon Ratchasima"
        },
        {
            "zip_code": 31000,
            "province_th": "บุรีรัมย์",
            "province_en": "Buri Ram"
        },
        {
            "zip_code": 31190,
            "province_th": "บุรีรัมย์",
            "province_en": "Buri Ram"
        },
        {
            "zip_code": 31160,
            "province_th": "บุรีรัมย์",
            "province_en": "Buri Ram"
        },
        {
            "zip_code": 31110,
            "province_th": "บุรีรัมย์",
            "province_en": "Buri Ram"
        },
        {
            "zip_code": 31210,
            "province_th": "บุรีรัมย์",
            "province_en": "Buri Ram"
        },
        {
            "zip_code": 31170,
            "province_th": "บุรีรัมย์",
            "province_en": "Buri Ram"
        },
        {
            "zip_code": 31140,
            "province_th": "บุรีรัมย์",
            "province_en": "Buri Ram"
        },
        {
            "zip_code": 31180,
            "province_th": "บุรีรัมย์",
            "province_en": "Buri Ram"
        },
        {
            "zip_code": 31120,
            "province_th": "บุรีรัมย์",
            "province_en": "Buri Ram"
        },
        {
            "zip_code": 31130,
            "province_th": "บุรีรัมย์",
            "province_en": "Buri Ram"
        },
        {
            "zip_code": 31150,
            "province_th": "บุรีรัมย์",
            "province_en": "Buri Ram"
        },
        {
            "zip_code": 31220,
            "province_th": "บุรีรัมย์",
            "province_en": "Buri Ram"
        },
        {
            "zip_code": 31230,
            "province_th": "บุรีรัมย์",
            "province_en": "Buri Ram"
        },
        {
            "zip_code": 31240,
            "province_th": "บุรีรัมย์",
            "province_en": "Buri Ram"
        },
        {
            "zip_code": 31250,
            "province_th": "บุรีรัมย์",
            "province_en": "Buri Ram"
        },
        {
            "zip_code": 31260,
            "province_th": "บุรีรัมย์",
            "province_en": "Buri Ram"
        },
        {
            "zip_code": 32000,
            "province_th": "สุรินทร์",
            "province_en": "Surin"
        },
        {
            "zip_code": 32190,
            "province_th": "สุรินทร์",
            "province_en": "Surin"
        },
        {
            "zip_code": 32120,
            "province_th": "สุรินทร์",
            "province_en": "Surin"
        },
        {
            "zip_code": 32180,
            "province_th": "สุรินทร์",
            "province_en": "Surin"
        },
        {
            "zip_code": 32140,
            "province_th": "สุรินทร์",
            "province_en": "Surin"
        },
        {
            "zip_code": 32210,
            "province_th": "สุรินทร์",
            "province_en": "Surin"
        },
        {
            "zip_code": 32130,
            "province_th": "สุรินทร์",
            "province_en": "Surin"
        },
        {
            "zip_code": 32160,
            "province_th": "สุรินทร์",
            "province_en": "Surin"
        },
        {
            "zip_code": 32110,
            "province_th": "สุรินทร์",
            "province_en": "Surin"
        },
        {
            "zip_code": 32150,
            "province_th": "สุรินทร์",
            "province_en": "Surin"
        },
        {
            "zip_code": 32220,
            "province_th": "สุรินทร์",
            "province_en": "Surin"
        },
        {
            "zip_code": 32170,
            "province_th": "สุรินทร์",
            "province_en": "Surin"
        },
        {
            "zip_code": 32230,
            "province_th": "สุรินทร์",
            "province_en": "Surin"
        },
        {
            "zip_code": 33000,
            "province_th": "ศรีสะเกษ",
            "province_en": "Si Sa Ket"
        },
        {
            "zip_code": 33190,
            "province_th": "ศรีสะเกษ",
            "province_en": "Si Sa Ket"
        },
        {
            "zip_code": 33130,
            "province_th": "ศรีสะเกษ",
            "province_en": "Si Sa Ket"
        },
        {
            "zip_code": 33110,
            "province_th": "ศรีสะเกษ",
            "province_en": "Si Sa Ket"
        },
        {
            "zip_code": 33140,
            "province_th": "ศรีสะเกษ",
            "province_en": "Si Sa Ket"
        },
        {
            "zip_code": 33180,
            "province_th": "ศรีสะเกษ",
            "province_en": "Si Sa Ket"
        },
        {
            "zip_code": 33170,
            "province_th": "ศรีสะเกษ",
            "province_en": "Si Sa Ket"
        },
        {
            "zip_code": 33150,
            "province_th": "ศรีสะเกษ",
            "province_en": "Si Sa Ket"
        },
        {
            "zip_code": 33160,
            "province_th": "ศรีสะเกษ",
            "province_en": "Si Sa Ket"
        },
        {
            "zip_code": 33120,
            "province_th": "ศรีสะเกษ",
            "province_en": "Si Sa Ket"
        },
        {
            "zip_code": 33220,
            "province_th": "ศรีสะเกษ",
            "province_en": "Si Sa Ket"
        },
        {
            "zip_code": 33210,
            "province_th": "ศรีสะเกษ",
            "province_en": "Si Sa Ket"
        },
        {
            "zip_code": 33250,
            "province_th": "ศรีสะเกษ",
            "province_en": "Si Sa Ket"
        },
        {
            "zip_code": 33240,
            "province_th": "ศรีสะเกษ",
            "province_en": "Si Sa Ket"
        },
        {
            "zip_code": 33270,
            "province_th": "ศรีสะเกษ",
            "province_en": "Si Sa Ket"
        },
        {
            "zip_code": 33230,
            "province_th": "ศรีสะเกษ",
            "province_en": "Si Sa Ket"
        },
        {
            "zip_code": 34000,
            "province_th": "อุบลราชธานี",
            "province_en": "Ubon Ratchathani"
        },
        {
            "zip_code": 34250,
            "province_th": "อุบลราชธานี",
            "province_en": "Ubon Ratchathani"
        },
        {
            "zip_code": 34220,
            "province_th": "อุบลราชธานี",
            "province_en": "Ubon Ratchathani"
        },
        {
            "zip_code": 34150,
            "province_th": "อุบลราชธานี",
            "province_en": "Ubon Ratchathani"
        },
        {
            "zip_code": 34320,
            "province_th": "อุบลราชธานี",
            "province_en": "Ubon Ratchathani"
        },
        {
            "zip_code": 34170,
            "province_th": "อุบลราชธานี",
            "province_en": "Ubon Ratchathani"
        },
        {
            "zip_code": 34160,
            "province_th": "อุบลราชธานี",
            "province_en": "Ubon Ratchathani"
        },
        {
            "zip_code": 34280,
            "province_th": "อุบลราชธานี",
            "province_en": "Ubon Ratchathani"
        },
        {
            "zip_code": 34260,
            "province_th": "อุบลราชธานี",
            "province_en": "Ubon Ratchathani"
        },
        {
            "zip_code": 34230,
            "province_th": "อุบลราชธานี",
            "province_en": "Ubon Ratchathani"
        },
        {
            "zip_code": 34130,
            "province_th": "อุบลราชธานี",
            "province_en": "Ubon Ratchathani"
        },
        {
            "zip_code": 34270,
            "province_th": "อุบลราชธานี",
            "province_en": "Ubon Ratchathani"
        },
        {
            "zip_code": 34140,
            "province_th": "อุบลราชธานี",
            "province_en": "Ubon Ratchathani"
        },
        {
            "zip_code": 34190,
            "province_th": "อุบลราชธานี",
            "province_en": "Ubon Ratchathani"
        },
        {
            "zip_code": 34310,
            "province_th": "อุบลราชธานี",
            "province_en": "Ubon Ratchathani"
        },
        {
            "zip_code": 34110,
            "province_th": "อุบลราชธานี",
            "province_en": "Ubon Ratchathani"
        },
        {
            "zip_code": 34330,
            "province_th": "อุบลราชธานี",
            "province_en": "Ubon Ratchathani"
        },
        {
            "zip_code": 34340,
            "province_th": "อุบลราชธานี",
            "province_en": "Ubon Ratchathani"
        },
        {
            "zip_code": 34360,
            "province_th": "อุบลราชธานี",
            "province_en": "Ubon Ratchathani"
        },
        {
            "zip_code": 34350,
            "province_th": "อุบลราชธานี",
            "province_en": "Ubon Ratchathani"
        },
        {
            "zip_code": 35000,
            "province_th": "ยโสธร",
            "province_en": "Yasothon"
        },
        {
            "zip_code": 35170,
            "province_th": "ยโสธร",
            "province_en": "Yasothon"
        },
        {
            "zip_code": 35140,
            "province_th": "ยโสธร",
            "province_en": "Yasothon"
        },
        {
            "zip_code": 35110,
            "province_th": "ยโสธร",
            "province_en": "Yasothon"
        },
        {
            "zip_code": 35180,
            "province_th": "ยโสธร",
            "province_en": "Yasothon"
        },
        {
            "zip_code": 35150,
            "province_th": "ยโสธร",
            "province_en": "Yasothon"
        },
        {
            "zip_code": 35130,
            "province_th": "ยโสธร",
            "province_en": "Yasothon"
        },
        {
            "zip_code": 35160,
            "province_th": "ยโสธร",
            "province_en": "Yasothon"
        },
        {
            "zip_code": 35120,
            "province_th": "ยโสธร",
            "province_en": "Yasothon"
        },
        {
            "zip_code": 36000,
            "province_th": "ชัยภูมิ",
            "province_en": "Chaiyaphum"
        },
        {
            "zip_code": 36240,
            "province_th": "ชัยภูมิ",
            "province_en": "Chaiyaphum"
        },
        {
            "zip_code": 36170,
            "province_th": "ชัยภูมิ",
            "province_en": "Chaiyaphum"
        },
        {
            "zip_code": 36140,
            "province_th": "ชัยภูมิ",
            "province_en": "Chaiyaphum"
        },
        {
            "zip_code": 36120,
            "province_th": "ชัยภูมิ",
            "province_en": "Chaiyaphum"
        },
        {
            "zip_code": 36210,
            "province_th": "ชัยภูมิ",
            "province_en": "Chaiyaphum"
        },
        {
            "zip_code": 36130,
            "province_th": "ชัยภูมิ",
            "province_en": "Chaiyaphum"
        },
        {
            "zip_code": 36160,
            "province_th": "ชัยภูมิ",
            "province_en": "Chaiyaphum"
        },
        {
            "zip_code": 36250,
            "province_th": "ชัยภูมิ",
            "province_en": "Chaiyaphum"
        },
        {
            "zip_code": 36230,
            "province_th": "ชัยภูมิ",
            "province_en": "Chaiyaphum"
        },
        {
            "zip_code": 36110,
            "province_th": "ชัยภูมิ",
            "province_en": "Chaiyaphum"
        },
        {
            "zip_code": 36190,
            "province_th": "ชัยภูมิ",
            "province_en": "Chaiyaphum"
        },
        {
            "zip_code": 36150,
            "province_th": "ชัยภูมิ",
            "province_en": "Chaiyaphum"
        },
        {
            "zip_code": 36180,
            "province_th": "ชัยภูมิ",
            "province_en": "Chaiyaphum"
        },
        {
            "zip_code": 36260,
            "province_th": "ชัยภูมิ",
            "province_en": "Chaiyaphum"
        },
        {
            "zip_code": 37000,
            "province_th": "อำนาจเจริญ",
            "province_en": "Amnat Charoen"
        },
        {
            "zip_code": 37210,
            "province_th": "อำนาจเจริญ",
            "province_en": "Amnat Charoen"
        },
        {
            "zip_code": 37110,
            "province_th": "อำนาจเจริญ",
            "province_en": "Amnat Charoen"
        },
        {
            "zip_code": 37180,
            "province_th": "อำนาจเจริญ",
            "province_en": "Amnat Charoen"
        },
        {
            "zip_code": 37290,
            "province_th": "อำนาจเจริญ",
            "province_en": "Amnat Charoen"
        },
        {
            "zip_code": 37240,
            "province_th": "อำนาจเจริญ",
            "province_en": "Amnat Charoen"
        },
        {
            "zip_code": 39000,
            "province_th": "หนองบัวลำภู",
            "province_en": "Nong Bua Lam Phu"
        },
        {
            "zip_code": 39170,
            "province_th": "หนองบัวลำภู",
            "province_en": "Nong Bua Lam Phu"
        },
        {
            "zip_code": 39350,
            "province_th": "หนองบัวลำภู",
            "province_en": "Nong Bua Lam Phu"
        },
        {
            "zip_code": 39140,
            "province_th": "หนองบัวลำภู",
            "province_en": "Nong Bua Lam Phu"
        },
        {
            "zip_code": 39180,
            "province_th": "หนองบัวลำภู",
            "province_en": "Nong Bua Lam Phu"
        },
        {
            "zip_code": 39270,
            "province_th": "หนองบัวลำภู",
            "province_en": "Nong Bua Lam Phu"
        },
        {
            "zip_code": 40000,
            "province_th": "ขอนแก่น",
            "province_en": "Khon Kaen"
        },
        {
            "zip_code": 40260,
            "province_th": "ขอนแก่น",
            "province_en": "Khon Kaen"
        },
        {
            "zip_code": 40270,
            "province_th": "ขอนแก่น",
            "province_en": "Khon Kaen"
        },
        {
            "zip_code": 40320,
            "province_th": "ขอนแก่น",
            "province_en": "Khon Kaen"
        },
        {
            "zip_code": 40210,
            "province_th": "ขอนแก่น",
            "province_en": "Khon Kaen"
        },
        {
            "zip_code": 40240,
            "province_th": "ขอนแก่น",
            "province_en": "Khon Kaen"
        },
        {
            "zip_code": 40130,
            "province_th": "ขอนแก่น",
            "province_en": "Khon Kaen"
        },
        {
            "zip_code": 40290,
            "province_th": "ขอนแก่น",
            "province_en": "Khon Kaen"
        },
        {
            "zip_code": 40220,
            "province_th": "ขอนแก่น",
            "province_en": "Khon Kaen"
        },
        {
            "zip_code": 40140,
            "province_th": "ขอนแก่น",
            "province_en": "Khon Kaen"
        },
        {
            "zip_code": 40310,
            "province_th": "ขอนแก่น",
            "province_en": "Khon Kaen"
        },
        {
            "zip_code": 40250,
            "province_th": "ขอนแก่น",
            "province_en": "Khon Kaen"
        },
        {
            "zip_code": 40170,
            "province_th": "ขอนแก่น",
            "province_en": "Khon Kaen"
        },
        {
            "zip_code": 40110,
            "province_th": "ขอนแก่น",
            "province_en": "Khon Kaen"
        },
        {
            "zip_code": 40340,
            "province_th": "ขอนแก่น",
            "province_en": "Khon Kaen"
        },
        {
            "zip_code": 40120,
            "province_th": "ขอนแก่น",
            "province_en": "Khon Kaen"
        },
        {
            "zip_code": 40330,
            "province_th": "ขอนแก่น",
            "province_en": "Khon Kaen"
        },
        {
            "zip_code": 40230,
            "province_th": "ขอนแก่น",
            "province_en": "Khon Kaen"
        },
        {
            "zip_code": 40190,
            "province_th": "ขอนแก่น",
            "province_en": "Khon Kaen"
        },
        {
            "zip_code": 40150,
            "province_th": "ขอนแก่น",
            "province_en": "Khon Kaen"
        },
        {
            "zip_code": 40160,
            "province_th": "ขอนแก่น",
            "province_en": "Khon Kaen"
        },
        {
            "zip_code": 40180,
            "province_th": "ขอนแก่น",
            "province_en": "Khon Kaen"
        },
        {
            "zip_code": 40280,
            "province_th": "ขอนแก่น",
            "province_en": "Khon Kaen"
        },
        {
            "zip_code": 40350,
            "province_th": "ขอนแก่น",
            "province_en": "Khon Kaen"
        },
        {
            "zip_code": 0,
            "province_th": "ขอนแก่น",
            "province_en": "Khon Kaen"
        },
        {
            "zip_code": 41000,
            "province_th": "อุดรธานี",
            "province_en": "Udon Thani"
        },
        {
            "zip_code": 41330,
            "province_th": "อุดรธานี",
            "province_en": "Udon Thani"
        },
        {
            "zip_code": 41250,
            "province_th": "อุดรธานี",
            "province_en": "Udon Thani"
        },
        {
            "zip_code": 41360,
            "province_th": "อุดรธานี",
            "province_en": "Udon Thani"
        },
        {
            "zip_code": 41220,
            "province_th": "อุดรธานี",
            "province_en": "Udon Thani"
        },
        {
            "zip_code": 41110,
            "province_th": "อุดรธานี",
            "province_en": "Udon Thani"
        },
        {
            "zip_code": 41370,
            "province_th": "อุดรธานี",
            "province_en": "Udon Thani"
        },
        {
            "zip_code": 41240,
            "province_th": "อุดรธานี",
            "province_en": "Udon Thani"
        },
        {
            "zip_code": 41130,
            "province_th": "อุดรธานี",
            "province_en": "Udon Thani"
        },
        {
            "zip_code": 41320,
            "province_th": "อุดรธานี",
            "province_en": "Udon Thani"
        },
        {
            "zip_code": 41310,
            "province_th": "อุดรธานี",
            "province_en": "Udon Thani"
        },
        {
            "zip_code": 41290,
            "province_th": "อุดรธานี",
            "province_en": "Udon Thani"
        },
        {
            "zip_code": 41230,
            "province_th": "อุดรธานี",
            "province_en": "Udon Thani"
        },
        {
            "zip_code": 41280,
            "province_th": "อุดรธานี",
            "province_en": "Udon Thani"
        },
        {
            "zip_code": 41190,
            "province_th": "อุดรธานี",
            "province_en": "Udon Thani"
        },
        {
            "zip_code": 41160,
            "province_th": "อุดรธานี",
            "province_en": "Udon Thani"
        },
        {
            "zip_code": 41210,
            "province_th": "อุดรธานี",
            "province_en": "Udon Thani"
        },
        {
            "zip_code": 41150,
            "province_th": "อุดรธานี",
            "province_en": "Udon Thani"
        },
        {
            "zip_code": 41260,
            "province_th": "อุดรธานี",
            "province_en": "Udon Thani"
        },
        {
            "zip_code": 41340,
            "province_th": "อุดรธานี",
            "province_en": "Udon Thani"
        },
        {
            "zip_code": 41380,
            "province_th": "อุดรธานี",
            "province_en": "Udon Thani"
        },
        {
            "zip_code": 42000,
            "province_th": "เลย",
            "province_en": "Loei"
        },
        {
            "zip_code": 42100,
            "province_th": "เลย",
            "province_en": "Loei"
        },
        {
            "zip_code": 42210,
            "province_th": "เลย",
            "province_en": "Loei"
        },
        {
            "zip_code": 42110,
            "province_th": "เลย",
            "province_en": "Loei"
        },
        {
            "zip_code": 42150,
            "province_th": "เลย",
            "province_en": "Loei"
        },
        {
            "zip_code": 42120,
            "province_th": "เลย",
            "province_en": "Loei"
        },
        {
            "zip_code": 42170,
            "province_th": "เลย",
            "province_en": "Loei"
        },
        {
            "zip_code": 42160,
            "province_th": "เลย",
            "province_en": "Loei"
        },
        {
            "zip_code": 42140,
            "province_th": "เลย",
            "province_en": "Loei"
        },
        {
            "zip_code": 42130,
            "province_th": "เลย",
            "province_en": "Loei"
        },
        {
            "zip_code": 42180,
            "province_th": "เลย",
            "province_en": "Loei"
        },
        {
            "zip_code": 42230,
            "province_th": "เลย",
            "province_en": "Loei"
        },
        {
            "zip_code": 42240,
            "province_th": "เลย",
            "province_en": "Loei"
        },
        {
            "zip_code": 42220,
            "province_th": "เลย",
            "province_en": "Loei"
        },
        {
            "zip_code": 42190,
            "province_th": "เลย",
            "province_en": "Loei"
        },
        {
            "zip_code": 43000,
            "province_th": "หนองคาย",
            "province_en": "Nong Khai"
        },
        {
            "zip_code": 43100,
            "province_th": "หนองคาย",
            "province_en": "Nong Khai"
        },
        {
            "zip_code": 43110,
            "province_th": "หนองคาย",
            "province_en": "Nong Khai"
        },
        {
            "zip_code": 43120,
            "province_th": "หนองคาย",
            "province_en": "Nong Khai"
        },
        {
            "zip_code": 43130,
            "province_th": "หนองคาย",
            "province_en": "Nong Khai"
        },
        {
            "zip_code": 43160,
            "province_th": "หนองคาย",
            "province_en": "Nong Khai"
        },
        {
            "zip_code": 44000,
            "province_th": "มหาสารคาม",
            "province_en": "Maha Sarakham"
        },
        {
            "zip_code": 44190,
            "province_th": "มหาสารคาม",
            "province_en": "Maha Sarakham"
        },
        {
            "zip_code": 44140,
            "province_th": "มหาสารคาม",
            "province_en": "Maha Sarakham"
        },
        {
            "zip_code": 44150,
            "province_th": "มหาสารคาม",
            "province_en": "Maha Sarakham"
        },
        {
            "zip_code": 44160,
            "province_th": "มหาสารคาม",
            "province_en": "Maha Sarakham"
        },
        {
            "zip_code": 44130,
            "province_th": "มหาสารคาม",
            "province_en": "Maha Sarakham"
        },
        {
            "zip_code": 44170,
            "province_th": "มหาสารคาม",
            "province_en": "Maha Sarakham"
        },
        {
            "zip_code": 44110,
            "province_th": "มหาสารคาม",
            "province_en": "Maha Sarakham"
        },
        {
            "zip_code": 44120,
            "province_th": "มหาสารคาม",
            "province_en": "Maha Sarakham"
        },
        {
            "zip_code": 44180,
            "province_th": "มหาสารคาม",
            "province_en": "Maha Sarakham"
        },
        {
            "zip_code": 44210,
            "province_th": "มหาสารคาม",
            "province_en": "Maha Sarakham"
        },
        {
            "zip_code": 45000,
            "province_th": "ร้อยเอ็ด",
            "province_en": "Roi Et"
        },
        {
            "zip_code": 45150,
            "province_th": "ร้อยเอ็ด",
            "province_en": "Roi Et"
        },
        {
            "zip_code": 45190,
            "province_th": "ร้อยเอ็ด",
            "province_en": "Roi Et"
        },
        {
            "zip_code": 45180,
            "province_th": "ร้อยเอ็ด",
            "province_en": "Roi Et"
        },
        {
            "zip_code": 45170,
            "province_th": "ร้อยเอ็ด",
            "province_en": "Roi Et"
        },
        {
            "zip_code": 45140,
            "province_th": "ร้อยเอ็ด",
            "province_en": "Roi Et"
        },
        {
            "zip_code": 45110,
            "province_th": "ร้อยเอ็ด",
            "province_en": "Roi Et"
        },
        {
            "zip_code": 45230,
            "province_th": "ร้อยเอ็ด",
            "province_en": "Roi Et"
        },
        {
            "zip_code": 45210,
            "province_th": "ร้อยเอ็ด",
            "province_en": "Roi Et"
        },
        {
            "zip_code": 45120,
            "province_th": "ร้อยเอ็ด",
            "province_en": "Roi Et"
        },
        {
            "zip_code": 45130,
            "province_th": "ร้อยเอ็ด",
            "province_en": "Roi Et"
        },
        {
            "zip_code": 45220,
            "province_th": "ร้อยเอ็ด",
            "province_en": "Roi Et"
        },
        {
            "zip_code": 45240,
            "province_th": "ร้อยเอ็ด",
            "province_en": "Roi Et"
        },
        {
            "zip_code": 45160,
            "province_th": "ร้อยเอ็ด",
            "province_en": "Roi Et"
        },
        {
            "zip_code": 45250,
            "province_th": "ร้อยเอ็ด",
            "province_en": "Roi Et"
        },
        {
            "zip_code": 45280,
            "province_th": "ร้อยเอ็ด",
            "province_en": "Roi Et"
        },
        {
            "zip_code": 46000,
            "province_th": "กาฬสินธุ์",
            "province_en": "Kalasin"
        },
        {
            "zip_code": 46230,
            "province_th": "กาฬสินธุ์",
            "province_en": "Kalasin"
        },
        {
            "zip_code": 46130,
            "province_th": "กาฬสินธุ์",
            "province_en": "Kalasin"
        },
        {
            "zip_code": 46210,
            "province_th": "กาฬสินธุ์",
            "province_en": "Kalasin"
        },
        {
            "zip_code": 46110,
            "province_th": "กาฬสินธุ์",
            "province_en": "Kalasin"
        },
        {
            "zip_code": 46160,
            "province_th": "กาฬสินธุ์",
            "province_en": "Kalasin"
        },
        {
            "zip_code": 46120,
            "province_th": "กาฬสินธุ์",
            "province_en": "Kalasin"
        },
        {
            "zip_code": 46170,
            "province_th": "กาฬสินธุ์",
            "province_en": "Kalasin"
        },
        {
            "zip_code": 46140,
            "province_th": "กาฬสินธุ์",
            "province_en": "Kalasin"
        },
        {
            "zip_code": 46180,
            "province_th": "กาฬสินธุ์",
            "province_en": "Kalasin"
        },
        {
            "zip_code": 46190,
            "province_th": "กาฬสินธุ์",
            "province_en": "Kalasin"
        },
        {
            "zip_code": 46220,
            "province_th": "กาฬสินธุ์",
            "province_en": "Kalasin"
        },
        {
            "zip_code": 46150,
            "province_th": "กาฬสินธุ์",
            "province_en": "Kalasin"
        },
        {
            "zip_code": 46240,
            "province_th": "กาฬสินธุ์",
            "province_en": "Kalasin"
        },
        {
            "zip_code": 47000,
            "province_th": "สกลนคร",
            "province_en": "Sakon Nakhon"
        },
        {
            "zip_code": 47220,
            "province_th": "สกลนคร",
            "province_en": "Sakon Nakhon"
        },
        {
            "zip_code": 47210,
            "province_th": "สกลนคร",
            "province_en": "Sakon Nakhon"
        },
        {
            "zip_code": 47230,
            "province_th": "สกลนคร",
            "province_en": "Sakon Nakhon"
        },
        {
            "zip_code": 47180,
            "province_th": "สกลนคร",
            "province_en": "Sakon Nakhon"
        },
        {
            "zip_code": 47130,
            "province_th": "สกลนคร",
            "province_en": "Sakon Nakhon"
        },
        {
            "zip_code": 47160,
            "province_th": "สกลนคร",
            "province_en": "Sakon Nakhon"
        },
        {
            "zip_code": 47150,
            "province_th": "สกลนคร",
            "province_en": "Sakon Nakhon"
        },
        {
            "zip_code": 47270,
            "province_th": "สกลนคร",
            "province_en": "Sakon Nakhon"
        },
        {
            "zip_code": 47120,
            "province_th": "สกลนคร",
            "province_en": "Sakon Nakhon"
        },
        {
            "zip_code": 47250,
            "province_th": "สกลนคร",
            "province_en": "Sakon Nakhon"
        },
        {
            "zip_code": 47140,
            "province_th": "สกลนคร",
            "province_en": "Sakon Nakhon"
        },
        {
            "zip_code": 47170,
            "province_th": "สกลนคร",
            "province_en": "Sakon Nakhon"
        },
        {
            "zip_code": 47110,
            "province_th": "สกลนคร",
            "province_en": "Sakon Nakhon"
        },
        {
            "zip_code": 47240,
            "province_th": "สกลนคร",
            "province_en": "Sakon Nakhon"
        },
        {
            "zip_code": 47190,
            "province_th": "สกลนคร",
            "province_en": "Sakon Nakhon"
        },
        {
            "zip_code": 47260,
            "province_th": "สกลนคร",
            "province_en": "Sakon Nakhon"
        },
        {
            "zip_code": 47280,
            "province_th": "สกลนคร",
            "province_en": "Sakon Nakhon"
        },
        {
            "zip_code": 47290,
            "province_th": "สกลนคร",
            "province_en": "Sakon Nakhon"
        },
        {
            "zip_code": 48000,
            "province_th": "นครพนม",
            "province_en": "Nakhon Phanom"
        },
        {
            "zip_code": 48160,
            "province_th": "นครพนม",
            "province_en": "Nakhon Phanom"
        },
        {
            "zip_code": 48120,
            "province_th": "นครพนม",
            "province_en": "Nakhon Phanom"
        },
        {
            "zip_code": 48140,
            "province_th": "นครพนม",
            "province_en": "Nakhon Phanom"
        },
        {
            "zip_code": 48110,
            "province_th": "นครพนม",
            "province_en": "Nakhon Phanom"
        },
        {
            "zip_code": 48170,
            "province_th": "นครพนม",
            "province_en": "Nakhon Phanom"
        },
        {
            "zip_code": 48130,
            "province_th": "นครพนม",
            "province_en": "Nakhon Phanom"
        },
        {
            "zip_code": 48150,
            "province_th": "นครพนม",
            "province_en": "Nakhon Phanom"
        },
        {
            "zip_code": 48180,
            "province_th": "นครพนม",
            "province_en": "Nakhon Phanom"
        },
        {
            "zip_code": 48190,
            "province_th": "นครพนม",
            "province_en": "Nakhon Phanom"
        },
        {
            "zip_code": 49000,
            "province_th": "มุกดาหาร",
            "province_en": "Mukdahan"
        },
        {
            "zip_code": 49130,
            "province_th": "มุกดาหาร",
            "province_en": "Mukdahan"
        },
        {
            "zip_code": 49120,
            "province_th": "มุกดาหาร",
            "province_en": "Mukdahan"
        },
        {
            "zip_code": 49140,
            "province_th": "มุกดาหาร",
            "province_en": "Mukdahan"
        },
        {
            "zip_code": 49110,
            "province_th": "มุกดาหาร",
            "province_en": "Mukdahan"
        },
        {
            "zip_code": 49150,
            "province_th": "มุกดาหาร",
            "province_en": "Mukdahan"
        },
        {
            "zip_code": 49160,
            "province_th": "มุกดาหาร",
            "province_en": "Mukdahan"
        },
        {
            "zip_code": 50200,
            "province_th": "เชียงใหม่",
            "province_en": "Chiang Mai"
        },
        {
            "zip_code": 50100,
            "province_th": "เชียงใหม่",
            "province_en": "Chiang Mai"
        },
        {
            "zip_code": 50300,
            "province_th": "เชียงใหม่",
            "province_en": "Chiang Mai"
        },
        {
            "zip_code": 50000,
            "province_th": "เชียงใหม่",
            "province_en": "Chiang Mai"
        },
        {
            "zip_code": 50160,
            "province_th": "เชียงใหม่",
            "province_en": "Chiang Mai"
        },
        {
            "zip_code": 50240,
            "province_th": "เชียงใหม่",
            "province_en": "Chiang Mai"
        },
        {
            "zip_code": 50270,
            "province_th": "เชียงใหม่",
            "province_en": "Chiang Mai"
        },
        {
            "zip_code": 58130,
            "province_th": "เชียงใหม่",
            "province_en": "Chiang Mai"
        },
        {
            "zip_code": 50170,
            "province_th": "เชียงใหม่",
            "province_en": "Chiang Mai"
        },
        {
            "zip_code": 50220,
            "province_th": "เชียงใหม่",
            "province_en": "Chiang Mai"
        },
        {
            "zip_code": 50150,
            "province_th": "เชียงใหม่",
            "province_en": "Chiang Mai"
        },
        {
            "zip_code": 50330,
            "province_th": "เชียงใหม่",
            "province_en": "Chiang Mai"
        },
        {
            "zip_code": 50180,
            "province_th": "เชียงใหม่",
            "province_en": "Chiang Mai"
        },
        {
            "zip_code": 50250,
            "province_th": "เชียงใหม่",
            "province_en": "Chiang Mai"
        },
        {
            "zip_code": 50110,
            "province_th": "เชียงใหม่",
            "province_en": "Chiang Mai"
        },
        {
            "zip_code": 50320,
            "province_th": "เชียงใหม่",
            "province_en": "Chiang Mai"
        },
        {
            "zip_code": 50280,
            "province_th": "เชียงใหม่",
            "province_en": "Chiang Mai"
        },
        {
            "zip_code": 50190,
            "province_th": "เชียงใหม่",
            "province_en": "Chiang Mai"
        },
        {
            "zip_code": 50120,
            "province_th": "เชียงใหม่",
            "province_en": "Chiang Mai"
        },
        {
            "zip_code": 50130,
            "province_th": "เชียงใหม่",
            "province_en": "Chiang Mai"
        },
        {
            "zip_code": 50210,
            "province_th": "เชียงใหม่",
            "province_en": "Chiang Mai"
        },
        {
            "zip_code": 50290,
            "province_th": "เชียงใหม่",
            "province_en": "Chiang Mai"
        },
        {
            "zip_code": 50230,
            "province_th": "เชียงใหม่",
            "province_en": "Chiang Mai"
        },
        {
            "zip_code": 50340,
            "province_th": "เชียงใหม่",
            "province_en": "Chiang Mai"
        },
        {
            "zip_code": 50260,
            "province_th": "เชียงใหม่",
            "province_en": "Chiang Mai"
        },
        {
            "zip_code": 50310,
            "province_th": "เชียงใหม่",
            "province_en": "Chiang Mai"
        },
        {
            "zip_code": 50140,
            "province_th": "เชียงใหม่",
            "province_en": "Chiang Mai"
        },
        {
            "zip_code": 50350,
            "province_th": "เชียงใหม่",
            "province_en": "Chiang Mai"
        },
        {
            "zip_code": 50360,
            "province_th": "เชียงใหม่",
            "province_en": "Chiang Mai"
        },
        {
            "zip_code": 51000,
            "province_th": "ลำพูน",
            "province_en": "Lamphun"
        },
        {
            "zip_code": 51150,
            "province_th": "ลำพูน",
            "province_en": "Lamphun"
        },
        {
            "zip_code": 51140,
            "province_th": "ลำพูน",
            "province_en": "Lamphun"
        },
        {
            "zip_code": 51170,
            "province_th": "ลำพูน",
            "province_en": "Lamphun"
        },
        {
            "zip_code": 51130,
            "province_th": "ลำพูน",
            "province_en": "Lamphun"
        },
        {
            "zip_code": 51110,
            "province_th": "ลำพูน",
            "province_en": "Lamphun"
        },
        {
            "zip_code": 51160,
            "province_th": "ลำพูน",
            "province_en": "Lamphun"
        },
        {
            "zip_code": 51120,
            "province_th": "ลำพูน",
            "province_en": "Lamphun"
        },
        {
            "zip_code": 51180,
            "province_th": "ลำพูน",
            "province_en": "Lamphun"
        },
        {
            "zip_code": 52000,
            "province_th": "ลำปาง",
            "province_en": "Lampang"
        },
        {
            "zip_code": 52100,
            "province_th": "ลำปาง",
            "province_en": "Lampang"
        },
        {
            "zip_code": 52220,
            "province_th": "ลำปาง",
            "province_en": "Lampang"
        },
        {
            "zip_code": 52130,
            "province_th": "ลำปาง",
            "province_en": "Lampang"
        },
        {
            "zip_code": 52210,
            "province_th": "ลำปาง",
            "province_en": "Lampang"
        },
        {
            "zip_code": 52110,
            "province_th": "ลำปาง",
            "province_en": "Lampang"
        },
        {
            "zip_code": 52120,
            "province_th": "ลำปาง",
            "province_en": "Lampang"
        },
        {
            "zip_code": 52140,
            "province_th": "ลำปาง",
            "province_en": "Lampang"
        },
        {
            "zip_code": 52160,
            "province_th": "ลำปาง",
            "province_en": "Lampang"
        },
        {
            "zip_code": 52230,
            "province_th": "ลำปาง",
            "province_en": "Lampang"
        },
        {
            "zip_code": 52180,
            "province_th": "ลำปาง",
            "province_en": "Lampang"
        },
        {
            "zip_code": 52150,
            "province_th": "ลำปาง",
            "province_en": "Lampang"
        },
        {
            "zip_code": 52170,
            "province_th": "ลำปาง",
            "province_en": "Lampang"
        },
        {
            "zip_code": 52190,
            "province_th": "ลำปาง",
            "province_en": "Lampang"
        },
        {
            "zip_code": 52240,
            "province_th": "ลำปาง",
            "province_en": "Lampang"
        },
        {
            "zip_code": 53000,
            "province_th": "อุตรดิตถ์",
            "province_en": "Uttaradit"
        },
        {
            "zip_code": 53170,
            "province_th": "อุตรดิตถ์",
            "province_en": "Uttaradit"
        },
        {
            "zip_code": 53140,
            "province_th": "อุตรดิตถ์",
            "province_en": "Uttaradit"
        },
        {
            "zip_code": 53150,
            "province_th": "อุตรดิตถ์",
            "province_en": "Uttaradit"
        },
        {
            "zip_code": 53190,
            "province_th": "อุตรดิตถ์",
            "province_en": "Uttaradit"
        },
        {
            "zip_code": 53110,
            "province_th": "อุตรดิตถ์",
            "province_en": "Uttaradit"
        },
        {
            "zip_code": 53160,
            "province_th": "อุตรดิตถ์",
            "province_en": "Uttaradit"
        },
        {
            "zip_code": 53180,
            "province_th": "อุตรดิตถ์",
            "province_en": "Uttaradit"
        },
        {
            "zip_code": 53120,
            "province_th": "อุตรดิตถ์",
            "province_en": "Uttaradit"
        },
        {
            "zip_code": 53220,
            "province_th": "อุตรดิตถ์",
            "province_en": "Uttaradit"
        },
        {
            "zip_code": 53130,
            "province_th": "อุตรดิตถ์",
            "province_en": "Uttaradit"
        },
        {
            "zip_code": 53210,
            "province_th": "อุตรดิตถ์",
            "province_en": "Uttaradit"
        },
        {
            "zip_code": 53230,
            "province_th": "อุตรดิตถ์",
            "province_en": "Uttaradit"
        },
        {
            "zip_code": 54000,
            "province_th": "แพร่",
            "province_en": "Phrae"
        },
        {
            "zip_code": 54140,
            "province_th": "แพร่",
            "province_en": "Phrae"
        },
        {
            "zip_code": 54150,
            "province_th": "แพร่",
            "province_en": "Phrae"
        },
        {
            "zip_code": 54130,
            "province_th": "แพร่",
            "province_en": "Phrae"
        },
        {
            "zip_code": 54110,
            "province_th": "แพร่",
            "province_en": "Phrae"
        },
        {
            "zip_code": 54120,
            "province_th": "แพร่",
            "province_en": "Phrae"
        },
        {
            "zip_code": 54160,
            "province_th": "แพร่",
            "province_en": "Phrae"
        },
        {
            "zip_code": 54170,
            "province_th": "แพร่",
            "province_en": "Phrae"
        },
        {
            "zip_code": 55000,
            "province_th": "น่าน",
            "province_en": "Nan"
        },
        {
            "zip_code": 55170,
            "province_th": "น่าน",
            "province_en": "Nan"
        },
        {
            "zip_code": 55190,
            "province_th": "น่าน",
            "province_en": "Nan"
        },
        {
            "zip_code": 55150,
            "province_th": "น่าน",
            "province_en": "Nan"
        },
        {
            "zip_code": 55120,
            "province_th": "น่าน",
            "province_en": "Nan"
        },
        {
            "zip_code": 55140,
            "province_th": "น่าน",
            "province_en": "Nan"
        },
        {
            "zip_code": 55110,
            "province_th": "น่าน",
            "province_en": "Nan"
        },
        {
            "zip_code": 55130,
            "province_th": "น่าน",
            "province_en": "Nan"
        },
        {
            "zip_code": 55160,
            "province_th": "น่าน",
            "province_en": "Nan"
        },
        {
            "zip_code": 55180,
            "province_th": "น่าน",
            "province_en": "Nan"
        },
        {
            "zip_code": 55210,
            "province_th": "น่าน",
            "province_en": "Nan"
        },
        {
            "zip_code": 55220,
            "province_th": "น่าน",
            "province_en": "Nan"
        },
        {
            "zip_code": 56000,
            "province_th": "พะเยา",
            "province_en": "Phayao"
        },
        {
            "zip_code": 56150,
            "province_th": "พะเยา",
            "province_en": "Phayao"
        },
        {
            "zip_code": 56110,
            "province_th": "พะเยา",
            "province_en": "Phayao"
        },
        {
            "zip_code": 56160,
            "province_th": "พะเยา",
            "province_en": "Phayao"
        },
        {
            "zip_code": 56120,
            "province_th": "พะเยา",
            "province_en": "Phayao"
        },
        {
            "zip_code": 56140,
            "province_th": "พะเยา",
            "province_en": "Phayao"
        },
        {
            "zip_code": 56130,
            "province_th": "พะเยา",
            "province_en": "Phayao"
        },
        {
            "zip_code": 57000,
            "province_th": "เชียงราย",
            "province_en": "Chiang Rai"
        },
        {
            "zip_code": 57100,
            "province_th": "เชียงราย",
            "province_en": "Chiang Rai"
        },
        {
            "zip_code": 57210,
            "province_th": "เชียงราย",
            "province_en": "Chiang Rai"
        },
        {
            "zip_code": 57140,
            "province_th": "เชียงราย",
            "province_en": "Chiang Rai"
        },
        {
            "zip_code": 57230,
            "province_th": "เชียงราย",
            "province_en": "Chiang Rai"
        },
        {
            "zip_code": 57160,
            "province_th": "เชียงราย",
            "province_en": "Chiang Rai"
        },
        {
            "zip_code": 57120,
            "province_th": "เชียงราย",
            "province_en": "Chiang Rai"
        },
        {
            "zip_code": 57250,
            "province_th": "เชียงราย",
            "province_en": "Chiang Rai"
        },
        {
            "zip_code": 57280,
            "province_th": "เชียงราย",
            "province_en": "Chiang Rai"
        },
        {
            "zip_code": 57190,
            "province_th": "เชียงราย",
            "province_en": "Chiang Rai"
        },
        {
            "zip_code": 57110,
            "province_th": "เชียงราย",
            "province_en": "Chiang Rai"
        },
        {
            "zip_code": 57270,
            "province_th": "เชียงราย",
            "province_en": "Chiang Rai"
        },
        {
            "zip_code": 57240,
            "province_th": "เชียงราย",
            "province_en": "Chiang Rai"
        },
        {
            "zip_code": 57150,
            "province_th": "เชียงราย",
            "province_en": "Chiang Rai"
        },
        {
            "zip_code": 57130,
            "province_th": "เชียงราย",
            "province_en": "Chiang Rai"
        },
        {
            "zip_code": 57220,
            "province_th": "เชียงราย",
            "province_en": "Chiang Rai"
        },
        {
            "zip_code": 57180,
            "province_th": "เชียงราย",
            "province_en": "Chiang Rai"
        },
        {
            "zip_code": 57170,
            "province_th": "เชียงราย",
            "province_en": "Chiang Rai"
        },
        {
            "zip_code": 57260,
            "province_th": "เชียงราย",
            "province_en": "Chiang Rai"
        },
        {
            "zip_code": 57290,
            "province_th": "เชียงราย",
            "province_en": "Chiang Rai"
        },
        {
            "zip_code": 57310,
            "province_th": "เชียงราย",
            "province_en": "Chiang Rai"
        },
        {
            "zip_code": 57340,
            "province_th": "เชียงราย",
            "province_en": "Chiang Rai"
        },
        {
            "zip_code": 58000,
            "province_th": "แม่ฮ่องสอน",
            "province_en": "Mae Hong Son"
        },
        {
            "zip_code": 58140,
            "province_th": "แม่ฮ่องสอน",
            "province_en": "Mae Hong Son"
        },
        {
            "zip_code": 58110,
            "province_th": "แม่ฮ่องสอน",
            "province_en": "Mae Hong Son"
        },
        {
            "zip_code": 58120,
            "province_th": "แม่ฮ่องสอน",
            "province_en": "Mae Hong Son"
        },
        {
            "zip_code": 58150,
            "province_th": "แม่ฮ่องสอน",
            "province_en": "Mae Hong Son"
        },
        {
            "zip_code": 60000,
            "province_th": "นครสวรรค์",
            "province_en": "Nakhon Sawan"
        },
        {
            "zip_code": 60240,
            "province_th": "นครสวรรค์",
            "province_en": "Nakhon Sawan"
        },
        {
            "zip_code": 60170,
            "province_th": "นครสวรรค์",
            "province_en": "Nakhon Sawan"
        },
        {
            "zip_code": 60120,
            "province_th": "นครสวรรค์",
            "province_en": "Nakhon Sawan"
        },
        {
            "zip_code": 60250,
            "province_th": "นครสวรรค์",
            "province_en": "Nakhon Sawan"
        },
        {
            "zip_code": 60110,
            "province_th": "นครสวรรค์",
            "province_en": "Nakhon Sawan"
        },
        {
            "zip_code": 60180,
            "province_th": "นครสวรรค์",
            "province_en": "Nakhon Sawan"
        },
        {
            "zip_code": 60230,
            "province_th": "นครสวรรค์",
            "province_en": "Nakhon Sawan"
        },
        {
            "zip_code": 60140,
            "province_th": "นครสวรรค์",
            "province_en": "Nakhon Sawan"
        },
        {
            "zip_code": 60210,
            "province_th": "นครสวรรค์",
            "province_en": "Nakhon Sawan"
        },
        {
            "zip_code": 60260,
            "province_th": "นครสวรรค์",
            "province_en": "Nakhon Sawan"
        },
        {
            "zip_code": 60160,
            "province_th": "นครสวรรค์",
            "province_en": "Nakhon Sawan"
        },
        {
            "zip_code": 60220,
            "province_th": "นครสวรรค์",
            "province_en": "Nakhon Sawan"
        },
        {
            "zip_code": 60130,
            "province_th": "นครสวรรค์",
            "province_en": "Nakhon Sawan"
        },
        {
            "zip_code": 60150,
            "province_th": "นครสวรรค์",
            "province_en": "Nakhon Sawan"
        },
        {
            "zip_code": 60190,
            "province_th": "นครสวรรค์",
            "province_en": "Nakhon Sawan"
        },
        {
            "zip_code": 61000,
            "province_th": "อุทัยธานี",
            "province_en": "Uthai Thani"
        },
        {
            "zip_code": 61120,
            "province_th": "อุทัยธานี",
            "province_en": "Uthai Thani"
        },
        {
            "zip_code": 61150,
            "province_th": "อุทัยธานี",
            "province_en": "Uthai Thani"
        },
        {
            "zip_code": 61110,
            "province_th": "อุทัยธานี",
            "province_en": "Uthai Thani"
        },
        {
            "zip_code": 61170,
            "province_th": "อุทัยธานี",
            "province_en": "Uthai Thani"
        },
        {
            "zip_code": 61130,
            "province_th": "อุทัยธานี",
            "province_en": "Uthai Thani"
        },
        {
            "zip_code": 61140,
            "province_th": "อุทัยธานี",
            "province_en": "Uthai Thani"
        },
        {
            "zip_code": 61180,
            "province_th": "อุทัยธานี",
            "province_en": "Uthai Thani"
        },
        {
            "zip_code": 61160,
            "province_th": "อุทัยธานี",
            "province_en": "Uthai Thani"
        },
        {
            "zip_code": 62000,
            "province_th": "กำแพงเพชร",
            "province_en": "Kamphaeng Phet"
        },
        {
            "zip_code": 62160,
            "province_th": "กำแพงเพชร",
            "province_en": "Kamphaeng Phet"
        },
        {
            "zip_code": 62150,
            "province_th": "กำแพงเพชร",
            "province_en": "Kamphaeng Phet"
        },
        {
            "zip_code": 62180,
            "province_th": "กำแพงเพชร",
            "province_en": "Kamphaeng Phet"
        },
        {
            "zip_code": 62130,
            "province_th": "กำแพงเพชร",
            "province_en": "Kamphaeng Phet"
        },
        {
            "zip_code": 62140,
            "province_th": "กำแพงเพชร",
            "province_en": "Kamphaeng Phet"
        },
        {
            "zip_code": 62120,
            "province_th": "กำแพงเพชร",
            "province_en": "Kamphaeng Phet"
        },
        {
            "zip_code": 62110,
            "province_th": "กำแพงเพชร",
            "province_en": "Kamphaeng Phet"
        },
        {
            "zip_code": 62170,
            "province_th": "กำแพงเพชร",
            "province_en": "Kamphaeng Phet"
        },
        {
            "zip_code": 62190,
            "province_th": "กำแพงเพชร",
            "province_en": "Kamphaeng Phet"
        },
        {
            "zip_code": 62210,
            "province_th": "กำแพงเพชร",
            "province_en": "Kamphaeng Phet"
        },
        {
            "zip_code": 63000,
            "province_th": "ตาก",
            "province_en": "Tak"
        },
        {
            "zip_code": 63120,
            "province_th": "ตาก",
            "province_en": "Tak"
        },
        {
            "zip_code": 63130,
            "province_th": "ตาก",
            "province_en": "Tak"
        },
        {
            "zip_code": 63140,
            "province_th": "ตาก",
            "province_en": "Tak"
        },
        {
            "zip_code": 63150,
            "province_th": "ตาก",
            "province_en": "Tak"
        },
        {
            "zip_code": 63110,
            "province_th": "ตาก",
            "province_en": "Tak"
        },
        {
            "zip_code": 63160,
            "province_th": "ตาก",
            "province_en": "Tak"
        },
        {
            "zip_code": 63170,
            "province_th": "ตาก",
            "province_en": "Tak"
        },
        {
            "zip_code": 64000,
            "province_th": "สุโขทัย",
            "province_en": "Sukhothai"
        },
        {
            "zip_code": 64220,
            "province_th": "สุโขทัย",
            "province_en": "Sukhothai"
        },
        {
            "zip_code": 64210,
            "province_th": "สุโขทัย",
            "province_en": "Sukhothai"
        },
        {
            "zip_code": 64140,
            "province_th": "สุโขทัย",
            "province_en": "Sukhothai"
        },
        {
            "zip_code": 64160,
            "province_th": "สุโขทัย",
            "province_en": "Sukhothai"
        },
        {
            "zip_code": 64170,
            "province_th": "สุโขทัย",
            "province_en": "Sukhothai"
        },
        {
            "zip_code": 64130,
            "province_th": "สุโขทัย",
            "province_en": "Sukhothai"
        },
        {
            "zip_code": 64190,
            "province_th": "สุโขทัย",
            "province_en": "Sukhothai"
        },
        {
            "zip_code": 64120,
            "province_th": "สุโขทัย",
            "province_en": "Sukhothai"
        },
        {
            "zip_code": 64110,
            "province_th": "สุโขทัย",
            "province_en": "Sukhothai"
        },
        {
            "zip_code": 64180,
            "province_th": "สุโขทัย",
            "province_en": "Sukhothai"
        },
        {
            "zip_code": 64230,
            "province_th": "สุโขทัย",
            "province_en": "Sukhothai"
        },
        {
            "zip_code": 64150,
            "province_th": "สุโขทัย",
            "province_en": "Sukhothai"
        },
        {
            "zip_code": 65000,
            "province_th": "พิษณุโลก",
            "province_en": "Phitsanulok"
        },
        {
            "zip_code": 65230,
            "province_th": "พิษณุโลก",
            "province_en": "Phitsanulok"
        },
        {
            "zip_code": 65120,
            "province_th": "พิษณุโลก",
            "province_en": "Phitsanulok"
        },
        {
            "zip_code": 65170,
            "province_th": "พิษณุโลก",
            "province_en": "Phitsanulok"
        },
        {
            "zip_code": 65140,
            "province_th": "พิษณุโลก",
            "province_en": "Phitsanulok"
        },
        {
            "zip_code": 65240,
            "province_th": "พิษณุโลก",
            "province_en": "Phitsanulok"
        },
        {
            "zip_code": 65110,
            "province_th": "พิษณุโลก",
            "province_en": "Phitsanulok"
        },
        {
            "zip_code": 65210,
            "province_th": "พิษณุโลก",
            "province_en": "Phitsanulok"
        },
        {
            "zip_code": 65150,
            "province_th": "พิษณุโลก",
            "province_en": "Phitsanulok"
        },
        {
            "zip_code": 65180,
            "province_th": "พิษณุโลก",
            "province_en": "Phitsanulok"
        },
        {
            "zip_code": 65160,
            "province_th": "พิษณุโลก",
            "province_en": "Phitsanulok"
        },
        {
            "zip_code": 65130,
            "province_th": "พิษณุโลก",
            "province_en": "Phitsanulok"
        },
        {
            "zip_code": 65220,
            "province_th": "พิษณุโลก",
            "province_en": "Phitsanulok"
        },
        {
            "zip_code": 65190,
            "province_th": "พิษณุโลก",
            "province_en": "Phitsanulok"
        },
        {
            "zip_code": 66000,
            "province_th": "พิจิตร",
            "province_en": "Phichit"
        },
        {
            "zip_code": 66170,
            "province_th": "พิจิตร",
            "province_en": "Phichit"
        },
        {
            "zip_code": 66180,
            "province_th": "พิจิตร",
            "province_en": "Phichit"
        },
        {
            "zip_code": 66190,
            "province_th": "พิจิตร",
            "province_en": "Phichit"
        },
        {
            "zip_code": 66110,
            "province_th": "พิจิตร",
            "province_en": "Phichit"
        },
        {
            "zip_code": 66150,
            "province_th": "พิจิตร",
            "province_en": "Phichit"
        },
        {
            "zip_code": 66120,
            "province_th": "พิจิตร",
            "province_en": "Phichit"
        },
        {
            "zip_code": 66210,
            "province_th": "พิจิตร",
            "province_en": "Phichit"
        },
        {
            "zip_code": 66130,
            "province_th": "พิจิตร",
            "province_en": "Phichit"
        },
        {
            "zip_code": 66140,
            "province_th": "พิจิตร",
            "province_en": "Phichit"
        },
        {
            "zip_code": 66230,
            "province_th": "พิจิตร",
            "province_en": "Phichit"
        },
        {
            "zip_code": 66160,
            "province_th": "พิจิตร",
            "province_en": "Phichit"
        },
        {
            "zip_code": 66220,
            "province_th": "พิจิตร",
            "province_en": "Phichit"
        },
        {
            "zip_code": 67000,
            "province_th": "เพชรบูรณ์",
            "province_en": "Phetchabun"
        },
        {
            "zip_code": 67250,
            "province_th": "เพชรบูรณ์",
            "province_en": "Phetchabun"
        },
        {
            "zip_code": 67210,
            "province_th": "เพชรบูรณ์",
            "province_en": "Phetchabun"
        },
        {
            "zip_code": 67150,
            "province_th": "เพชรบูรณ์",
            "province_en": "Phetchabun"
        },
        {
            "zip_code": 67190,
            "province_th": "เพชรบูรณ์",
            "province_en": "Phetchabun"
        },
        {
            "zip_code": 67110,
            "province_th": "เพชรบูรณ์",
            "province_en": "Phetchabun"
        },
        {
            "zip_code": 67120,
            "province_th": "เพชรบูรณ์",
            "province_en": "Phetchabun"
        },
        {
            "zip_code": 67130,
            "province_th": "เพชรบูรณ์",
            "province_en": "Phetchabun"
        },
        {
            "zip_code": 67180,
            "province_th": "เพชรบูรณ์",
            "province_en": "Phetchabun"
        },
        {
            "zip_code": 67170,
            "province_th": "เพชรบูรณ์",
            "province_en": "Phetchabun"
        },
        {
            "zip_code": 67140,
            "province_th": "เพชรบูรณ์",
            "province_en": "Phetchabun"
        },
        {
            "zip_code": 67220,
            "province_th": "เพชรบูรณ์",
            "province_en": "Phetchabun"
        },
        {
            "zip_code": 67160,
            "province_th": "เพชรบูรณ์",
            "province_en": "Phetchabun"
        },
        {
            "zip_code": 67230,
            "province_th": "เพชรบูรณ์",
            "province_en": "Phetchabun"
        },
        {
            "zip_code": 67260,
            "province_th": "เพชรบูรณ์",
            "province_en": "Phetchabun"
        },
        {
            "zip_code": 67240,
            "province_th": "เพชรบูรณ์",
            "province_en": "Phetchabun"
        },
        {
            "zip_code": 67270,
            "province_th": "เพชรบูรณ์",
            "province_en": "Phetchabun"
        },
        {
            "zip_code": 67280,
            "province_th": "เพชรบูรณ์",
            "province_en": "Phetchabun"
        },
        {
            "zip_code": 70000,
            "province_th": "ราชบุรี",
            "province_en": "Ratchaburi"
        },
        {
            "zip_code": 70150,
            "province_th": "ราชบุรี",
            "province_en": "Ratchaburi"
        },
        {
            "zip_code": 70180,
            "province_th": "ราชบุรี",
            "province_en": "Ratchaburi"
        },
        {
            "zip_code": 70130,
            "province_th": "ราชบุรี",
            "province_en": "Ratchaburi"
        },
        {
            "zip_code": 70210,
            "province_th": "ราชบุรี",
            "province_en": "Ratchaburi"
        },
        {
            "zip_code": 70110,
            "province_th": "ราชบุรี",
            "province_en": "Ratchaburi"
        },
        {
            "zip_code": 70190,
            "province_th": "ราชบุรี",
            "province_en": "Ratchaburi"
        },
        {
            "zip_code": 70160,
            "province_th": "ราชบุรี",
            "province_en": "Ratchaburi"
        },
        {
            "zip_code": 70120,
            "province_th": "ราชบุรี",
            "province_en": "Ratchaburi"
        },
        {
            "zip_code": 70140,
            "province_th": "ราชบุรี",
            "province_en": "Ratchaburi"
        },
        {
            "zip_code": 70170,
            "province_th": "ราชบุรี",
            "province_en": "Ratchaburi"
        },
        {
            "zip_code": 71000,
            "province_th": "กาญจนบุรี",
            "province_en": "Kanchanaburi"
        },
        {
            "zip_code": 71190,
            "province_th": "กาญจนบุรี",
            "province_en": "Kanchanaburi"
        },
        {
            "zip_code": 71150,
            "province_th": "กาญจนบุรี",
            "province_en": "Kanchanaburi"
        },
        {
            "zip_code": 71160,
            "province_th": "กาญจนบุรี",
            "province_en": "Kanchanaburi"
        },
        {
            "zip_code": 71220,
            "province_th": "กาญจนบุรี",
            "province_en": "Kanchanaburi"
        },
        {
            "zip_code": 71250,
            "province_th": "กาญจนบุรี",
            "province_en": "Kanchanaburi"
        },
        {
            "zip_code": 71120,
            "province_th": "กาญจนบุรี",
            "province_en": "Kanchanaburi"
        },
        {
            "zip_code": 71130,
            "province_th": "กาญจนบุรี",
            "province_en": "Kanchanaburi"
        },
        {
            "zip_code": 71110,
            "province_th": "กาญจนบุรี",
            "province_en": "Kanchanaburi"
        },
        {
            "zip_code": 71180,
            "province_th": "กาญจนบุรี",
            "province_en": "Kanchanaburi"
        },
        {
            "zip_code": 71240,
            "province_th": "กาญจนบุรี",
            "province_en": "Kanchanaburi"
        },
        {
            "zip_code": 71140,
            "province_th": "กาญจนบุรี",
            "province_en": "Kanchanaburi"
        },
        {
            "zip_code": 71170,
            "province_th": "กาญจนบุรี",
            "province_en": "Kanchanaburi"
        },
        {
            "zip_code": 71210,
            "province_th": "กาญจนบุรี",
            "province_en": "Kanchanaburi"
        },
        {
            "zip_code": 71260,
            "province_th": "กาญจนบุรี",
            "province_en": "Kanchanaburi"
        },
        {
            "zip_code": 72000,
            "province_th": "สุพรรณบุรี",
            "province_en": "Suphan Buri"
        },
        {
            "zip_code": 72230,
            "province_th": "สุพรรณบุรี",
            "province_en": "Suphan Buri"
        },
        {
            "zip_code": 72210,
            "province_th": "สุพรรณบุรี",
            "province_en": "Suphan Buri"
        },
        {
            "zip_code": 72120,
            "province_th": "สุพรรณบุรี",
            "province_en": "Suphan Buri"
        },
        {
            "zip_code": 72180,
            "province_th": "สุพรรณบุรี",
            "province_en": "Suphan Buri"
        },
        {
            "zip_code": 72150,
            "province_th": "สุพรรณบุรี",
            "province_en": "Suphan Buri"
        },
        {
            "zip_code": 72140,
            "province_th": "สุพรรณบุรี",
            "province_en": "Suphan Buri"
        },
        {
            "zip_code": 72170,
            "province_th": "สุพรรณบุรี",
            "province_en": "Suphan Buri"
        },
        {
            "zip_code": 72250,
            "province_th": "สุพรรณบุรี",
            "province_en": "Suphan Buri"
        },
        {
            "zip_code": 72110,
            "province_th": "สุพรรณบุรี",
            "province_en": "Suphan Buri"
        },
        {
            "zip_code": 72190,
            "province_th": "สุพรรณบุรี",
            "province_en": "Suphan Buri"
        },
        {
            "zip_code": 72130,
            "province_th": "สุพรรณบุรี",
            "province_en": "Suphan Buri"
        },
        {
            "zip_code": 72160,
            "province_th": "สุพรรณบุรี",
            "province_en": "Suphan Buri"
        },
        {
            "zip_code": 72220,
            "province_th": "สุพรรณบุรี",
            "province_en": "Suphan Buri"
        },
        {
            "zip_code": 72240,
            "province_th": "สุพรรณบุรี",
            "province_en": "Suphan Buri"
        },
        {
            "zip_code": 73000,
            "province_th": "นครปฐม",
            "province_en": "Nakhon Pathom"
        },
        {
            "zip_code": 73140,
            "province_th": "นครปฐม",
            "province_en": "Nakhon Pathom"
        },
        {
            "zip_code": 73180,
            "province_th": "นครปฐม",
            "province_en": "Nakhon Pathom"
        },
        {
            "zip_code": 73120,
            "province_th": "นครปฐม",
            "province_en": "Nakhon Pathom"
        },
        {
            "zip_code": 73150,
            "province_th": "นครปฐม",
            "province_en": "Nakhon Pathom"
        },
        {
            "zip_code": 73130,
            "province_th": "นครปฐม",
            "province_en": "Nakhon Pathom"
        },
        {
            "zip_code": 73190,
            "province_th": "นครปฐม",
            "province_en": "Nakhon Pathom"
        },
        {
            "zip_code": 73110,
            "province_th": "นครปฐม",
            "province_en": "Nakhon Pathom"
        },
        {
            "zip_code": 73210,
            "province_th": "นครปฐม",
            "province_en": "Nakhon Pathom"
        },
        {
            "zip_code": 73220,
            "province_th": "นครปฐม",
            "province_en": "Nakhon Pathom"
        },
        {
            "zip_code": 73160,
            "province_th": "นครปฐม",
            "province_en": "Nakhon Pathom"
        },
        {
            "zip_code": 73170,
            "province_th": "นครปฐม",
            "province_en": "Nakhon Pathom"
        },
        {
            "zip_code": 74000,
            "province_th": "สมุทรสาคร",
            "province_en": "Samut Sakhon"
        },
        {
            "zip_code": 74110,
            "province_th": "สมุทรสาคร",
            "province_en": "Samut Sakhon"
        },
        {
            "zip_code": 74130,
            "province_th": "สมุทรสาคร",
            "province_en": "Samut Sakhon"
        },
        {
            "zip_code": 74120,
            "province_th": "สมุทรสาคร",
            "province_en": "Samut Sakhon"
        },
        {
            "zip_code": 75000,
            "province_th": "สมุทรสงคราม",
            "province_en": "Samut Songkhram"
        },
        {
            "zip_code": 75120,
            "province_th": "สมุทรสงคราม",
            "province_en": "Samut Songkhram"
        },
        {
            "zip_code": 75110,
            "province_th": "สมุทรสงคราม",
            "province_en": "Samut Songkhram"
        },
        {
            "zip_code": 76000,
            "province_th": "เพชรบุรี",
            "province_en": "Phetchaburi"
        },
        {
            "zip_code": 76100,
            "province_th": "เพชรบุรี",
            "province_en": "Phetchaburi"
        },
        {
            "zip_code": 76140,
            "province_th": "เพชรบุรี",
            "province_en": "Phetchaburi"
        },
        {
            "zip_code": 76160,
            "province_th": "เพชรบุรี",
            "province_en": "Phetchaburi"
        },
        {
            "zip_code": 76120,
            "province_th": "เพชรบุรี",
            "province_en": "Phetchaburi"
        },
        {
            "zip_code": 76130,
            "province_th": "เพชรบุรี",
            "province_en": "Phetchaburi"
        },
        {
            "zip_code": 76150,
            "province_th": "เพชรบุรี",
            "province_en": "Phetchaburi"
        },
        {
            "zip_code": 76110,
            "province_th": "เพชรบุรี",
            "province_en": "Phetchaburi"
        },
        {
            "zip_code": 76170,
            "province_th": "เพชรบุรี",
            "province_en": "Phetchaburi"
        },
        {
            "zip_code": 77000,
            "province_th": "ประจวบคีรีขันธ์",
            "province_en": "Prachuap Khiri Khan"
        },
        {
            "zip_code": 77210,
            "province_th": "ประจวบคีรีขันธ์",
            "province_en": "Prachuap Khiri Khan"
        },
        {
            "zip_code": 77150,
            "province_th": "ประจวบคีรีขันธ์",
            "province_en": "Prachuap Khiri Khan"
        },
        {
            "zip_code": 77130,
            "province_th": "ประจวบคีรีขันธ์",
            "province_en": "Prachuap Khiri Khan"
        },
        {
            "zip_code": 77140,
            "province_th": "ประจวบคีรีขันธ์",
            "province_en": "Prachuap Khiri Khan"
        },
        {
            "zip_code": 77230,
            "province_th": "ประจวบคีรีขันธ์",
            "province_en": "Prachuap Khiri Khan"
        },
        {
            "zip_code": 77190,
            "province_th": "ประจวบคีรีขันธ์",
            "province_en": "Prachuap Khiri Khan"
        },
        {
            "zip_code": 77170,
            "province_th": "ประจวบคีรีขันธ์",
            "province_en": "Prachuap Khiri Khan"
        },
        {
            "zip_code": 77120,
            "province_th": "ประจวบคีรีขันธ์",
            "province_en": "Prachuap Khiri Khan"
        },
        {
            "zip_code": 77220,
            "province_th": "ประจวบคีรีขันธ์",
            "province_en": "Prachuap Khiri Khan"
        },
        {
            "zip_code": 77110,
            "province_th": "ประจวบคีรีขันธ์",
            "province_en": "Prachuap Khiri Khan"
        },
        {
            "zip_code": 77180,
            "province_th": "ประจวบคีรีขันธ์",
            "province_en": "Prachuap Khiri Khan"
        },
        {
            "zip_code": 80000,
            "province_th": "นครศรีธรรมราช",
            "province_en": "Nakhon Si Thammarat"
        },
        {
            "zip_code": 80280,
            "province_th": "นครศรีธรรมราช",
            "province_en": "Nakhon Si Thammarat"
        },
        {
            "zip_code": 80330,
            "province_th": "นครศรีธรรมราช",
            "province_en": "Nakhon Si Thammarat"
        },
        {
            "zip_code": 80290,
            "province_th": "นครศรีธรรมราช",
            "province_en": "Nakhon Si Thammarat"
        },
        {
            "zip_code": 80320,
            "province_th": "นครศรีธรรมราช",
            "province_en": "Nakhon Si Thammarat"
        },
        {
            "zip_code": 80230,
            "province_th": "นครศรีธรรมราช",
            "province_en": "Nakhon Si Thammarat"
        },
        {
            "zip_code": 80150,
            "province_th": "นครศรีธรรมราช",
            "province_en": "Nakhon Si Thammarat"
        },
        {
            "zip_code": 80250,
            "province_th": "นครศรีธรรมราช",
            "province_en": "Nakhon Si Thammarat"
        },
        {
            "zip_code": 80260,
            "province_th": "นครศรีธรรมราช",
            "province_en": "Nakhon Si Thammarat"
        },
        {
            "zip_code": 80270,
            "province_th": "นครศรีธรรมราช",
            "province_en": "Nakhon Si Thammarat"
        },
        {
            "zip_code": 80190,
            "province_th": "นครศรีธรรมราช",
            "province_en": "Nakhon Si Thammarat"
        },
        {
            "zip_code": 80180,
            "province_th": "นครศรีธรรมราช",
            "province_en": "Nakhon Si Thammarat"
        },
        {
            "zip_code": 80160,
            "province_th": "นครศรีธรรมราช",
            "province_en": "Nakhon Si Thammarat"
        },
        {
            "zip_code": 80110,
            "province_th": "นครศรีธรรมราช",
            "province_en": "Nakhon Si Thammarat"
        },
        {
            "zip_code": 80310,
            "province_th": "นครศรีธรรมราช",
            "province_en": "Nakhon Si Thammarat"
        },
        {
            "zip_code": 80220,
            "province_th": "นครศรีธรรมราช",
            "province_en": "Nakhon Si Thammarat"
        },
        {
            "zip_code": 80240,
            "province_th": "นครศรีธรรมราช",
            "province_en": "Nakhon Si Thammarat"
        },
        {
            "zip_code": 80140,
            "province_th": "นครศรีธรรมราช",
            "province_en": "Nakhon Si Thammarat"
        },
        {
            "zip_code": 80130,
            "province_th": "นครศรีธรรมราช",
            "province_en": "Nakhon Si Thammarat"
        },
        {
            "zip_code": 80350,
            "province_th": "นครศรีธรรมราช",
            "province_en": "Nakhon Si Thammarat"
        },
        {
            "zip_code": 80120,
            "province_th": "นครศรีธรรมราช",
            "province_en": "Nakhon Si Thammarat"
        },
        {
            "zip_code": 80340,
            "province_th": "นครศรีธรรมราช",
            "province_en": "Nakhon Si Thammarat"
        },
        {
            "zip_code": 80210,
            "province_th": "นครศรีธรรมราช",
            "province_en": "Nakhon Si Thammarat"
        },
        {
            "zip_code": 80170,
            "province_th": "นครศรีธรรมราช",
            "province_en": "Nakhon Si Thammarat"
        },
        {
            "zip_code": 80360,
            "province_th": "นครศรีธรรมราช",
            "province_en": "Nakhon Si Thammarat"
        },
        {
            "zip_code": 81000,
            "province_th": "กระบี่",
            "province_en": "Krabi"
        },
        {
            "zip_code": 81140,
            "province_th": "กระบี่",
            "province_en": "Krabi"
        },
        {
            "zip_code": 81150,
            "province_th": "กระบี่",
            "province_en": "Krabi"
        },
        {
            "zip_code": 81120,
            "province_th": "กระบี่",
            "province_en": "Krabi"
        },
        {
            "zip_code": 81170,
            "province_th": "กระบี่",
            "province_en": "Krabi"
        },
        {
            "zip_code": 81110,
            "province_th": "กระบี่",
            "province_en": "Krabi"
        },
        {
            "zip_code": 81160,
            "province_th": "กระบี่",
            "province_en": "Krabi"
        },
        {
            "zip_code": 81130,
            "province_th": "กระบี่",
            "province_en": "Krabi"
        },
        {
            "zip_code": 82000,
            "province_th": "พังงา",
            "province_en": "Phangnga"
        },
        {
            "zip_code": 82160,
            "province_th": "พังงา",
            "province_en": "Phangnga"
        },
        {
            "zip_code": 83000,
            "province_th": "พังงา",
            "province_en": "Phangnga"
        },
        {
            "zip_code": 82170,
            "province_th": "พังงา",
            "province_en": "Phangnga"
        },
        {
            "zip_code": 82130,
            "province_th": "พังงา",
            "province_en": "Phangnga"
        },
        {
            "zip_code": 82140,
            "province_th": "พังงา",
            "province_en": "Phangnga"
        },
        {
            "zip_code": 82110,
            "province_th": "พังงา",
            "province_en": "Phangnga"
        },
        {
            "zip_code": 82190,
            "province_th": "พังงา",
            "province_en": "Phangnga"
        },
        {
            "zip_code": 82150,
            "province_th": "พังงา",
            "province_en": "Phangnga"
        },
        {
            "zip_code": 82180,
            "province_th": "พังงา",
            "province_en": "Phangnga"
        },
        {
            "zip_code": 82120,
            "province_th": "พังงา",
            "province_en": "Phangnga"
        },
        {
            "zip_code": 83130,
            "province_th": "ภูเก็ต",
            "province_en": "Phuket"
        },
        {
            "zip_code": 83100,
            "province_th": "ภูเก็ต",
            "province_en": "Phuket"
        },
        {
            "zip_code": 83120,
            "province_th": "ภูเก็ต",
            "province_en": "Phuket"
        },
        {
            "zip_code": 83150,
            "province_th": "ภูเก็ต",
            "province_en": "Phuket"
        },
        {
            "zip_code": 83110,
            "province_th": "ภูเก็ต",
            "province_en": "Phuket"
        },
        {
            "zip_code": 84000,
            "province_th": "สุราษฎร์ธานี",
            "province_en": "Surat Thani"
        },
        {
            "zip_code": 84100,
            "province_th": "สุราษฎร์ธานี",
            "province_en": "Surat Thani"
        },
        {
            "zip_code": 84290,
            "province_th": "สุราษฎร์ธานี",
            "province_en": "Surat Thani"
        },
        {
            "zip_code": 84160,
            "province_th": "สุราษฎร์ธานี",
            "province_en": "Surat Thani"
        },
        {
            "zip_code": 84220,
            "province_th": "สุราษฎร์ธานี",
            "province_en": "Surat Thani"
        },
        {
            "zip_code": 84340,
            "province_th": "สุราษฎร์ธานี",
            "province_en": "Surat Thani"
        },
        {
            "zip_code": 84140,
            "province_th": "สุราษฎร์ธานี",
            "province_en": "Surat Thani"
        },
        {
            "zip_code": 84310,
            "province_th": "สุราษฎร์ธานี",
            "province_en": "Surat Thani"
        },
        {
            "zip_code": 84320,
            "province_th": "สุราษฎร์ธานี",
            "province_en": "Surat Thani"
        },
        {
            "zip_code": 84330,
            "province_th": "สุราษฎร์ธานี",
            "province_en": "Surat Thani"
        },
        {
            "zip_code": 84280,
            "province_th": "สุราษฎร์ธานี",
            "province_en": "Surat Thani"
        },
        {
            "zip_code": 84110,
            "province_th": "สุราษฎร์ธานี",
            "province_en": "Surat Thani"
        },
        {
            "zip_code": 84170,
            "province_th": "สุราษฎร์ธานี",
            "province_en": "Surat Thani"
        },
        {
            "zip_code": 84180,
            "province_th": "สุราษฎร์ธานี",
            "province_en": "Surat Thani"
        },
        {
            "zip_code": 84230,
            "province_th": "สุราษฎร์ธานี",
            "province_en": "Surat Thani"
        },
        {
            "zip_code": 84250,
            "province_th": "สุราษฎร์ธานี",
            "province_en": "Surat Thani"
        },
        {
            "zip_code": 84150,
            "province_th": "สุราษฎร์ธานี",
            "province_en": "Surat Thani"
        },
        {
            "zip_code": 84120,
            "province_th": "สุราษฎร์ธานี",
            "province_en": "Surat Thani"
        },
        {
            "zip_code": 84270,
            "province_th": "สุราษฎร์ธานี",
            "province_en": "Surat Thani"
        },
        {
            "zip_code": 84240,
            "province_th": "สุราษฎร์ธานี",
            "province_en": "Surat Thani"
        },
        {
            "zip_code": 84260,
            "province_th": "สุราษฎร์ธานี",
            "province_en": "Surat Thani"
        },
        {
            "zip_code": 84210,
            "province_th": "สุราษฎร์ธานี",
            "province_en": "Surat Thani"
        },
        {
            "zip_code": 84190,
            "province_th": "สุราษฎร์ธานี",
            "province_en": "Surat Thani"
        },
        {
            "zip_code": 84130,
            "province_th": "สุราษฎร์ธานี",
            "province_en": "Surat Thani"
        },
        {
            "zip_code": 84350,
            "province_th": "สุราษฎร์ธานี",
            "province_en": "Surat Thani"
        },
        {
            "zip_code": 85000,
            "province_th": "ระนอง",
            "province_en": "Ranong"
        },
        {
            "zip_code": 85130,
            "province_th": "ระนอง",
            "province_en": "Ranong"
        },
        {
            "zip_code": 85120,
            "province_th": "ระนอง",
            "province_en": "Ranong"
        },
        {
            "zip_code": 85110,
            "province_th": "ระนอง",
            "province_en": "Ranong"
        },
        {
            "zip_code": 86000,
            "province_th": "ชุมพร",
            "province_en": "Chumphon"
        },
        {
            "zip_code": 86120,
            "province_th": "ชุมพร",
            "province_en": "Chumphon"
        },
        {
            "zip_code": 86190,
            "province_th": "ชุมพร",
            "province_en": "Chumphon"
        },
        {
            "zip_code": 86100,
            "province_th": "ชุมพร",
            "province_en": "Chumphon"
        },
        {
            "zip_code": 86140,
            "province_th": "ชุมพร",
            "province_en": "Chumphon"
        },
        {
            "zip_code": 86160,
            "province_th": "ชุมพร",
            "province_en": "Chumphon"
        },
        {
            "zip_code": 86230,
            "province_th": "ชุมพร",
            "province_en": "Chumphon"
        },
        {
            "zip_code": 86210,
            "province_th": "ชุมพร",
            "province_en": "Chumphon"
        },
        {
            "zip_code": 86110,
            "province_th": "ชุมพร",
            "province_en": "Chumphon"
        },
        {
            "zip_code": 86150,
            "province_th": "ชุมพร",
            "province_en": "Chumphon"
        },
        {
            "zip_code": 86170,
            "province_th": "ชุมพร",
            "province_en": "Chumphon"
        },
        {
            "zip_code": 86180,
            "province_th": "ชุมพร",
            "province_en": "Chumphon"
        },
        {
            "zip_code": 86130,
            "province_th": "ชุมพร",
            "province_en": "Chumphon"
        },
        {
            "zip_code": 86220,
            "province_th": "ชุมพร",
            "province_en": "Chumphon"
        },
        {
            "zip_code": 90000,
            "province_th": "สงขลา",
            "province_en": "Songkhla"
        },
        {
            "zip_code": 90100,
            "province_th": "สงขลา",
            "province_en": "Songkhla"
        },
        {
            "zip_code": 90190,
            "province_th": "สงขลา",
            "province_en": "Songkhla"
        },
        {
            "zip_code": 90130,
            "province_th": "สงขลา",
            "province_en": "Songkhla"
        },
        {
            "zip_code": 90160,
            "province_th": "สงขลา",
            "province_en": "Songkhla"
        },
        {
            "zip_code": 90150,
            "province_th": "สงขลา",
            "province_en": "Songkhla"
        },
        {
            "zip_code": 90260,
            "province_th": "สงขลา",
            "province_en": "Songkhla"
        },
        {
            "zip_code": 90210,
            "province_th": "สงขลา",
            "province_en": "Songkhla"
        },
        {
            "zip_code": 90140,
            "province_th": "สงขลา",
            "province_en": "Songkhla"
        },
        {
            "zip_code": 90270,
            "province_th": "สงขลา",
            "province_en": "Songkhla"
        },
        {
            "zip_code": 90180,
            "province_th": "สงขลา",
            "province_en": "Songkhla"
        },
        {
            "zip_code": 90120,
            "province_th": "สงขลา",
            "province_en": "Songkhla"
        },
        {
            "zip_code": 90170,
            "province_th": "สงขลา",
            "province_en": "Songkhla"
        },
        {
            "zip_code": 90240,
            "province_th": "สงขลา",
            "province_en": "Songkhla"
        },
        {
            "zip_code": 90320,
            "province_th": "สงขลา",
            "province_en": "Songkhla"
        },
        {
            "zip_code": 90110,
            "province_th": "สงขลา",
            "province_en": "Songkhla"
        },
        {
            "zip_code": 90250,
            "province_th": "สงขลา",
            "province_en": "Songkhla"
        },
        {
            "zip_code": 90230,
            "province_th": "สงขลา",
            "province_en": "Songkhla"
        },
        {
            "zip_code": 90310,
            "province_th": "สงขลา",
            "province_en": "Songkhla"
        },
        {
            "zip_code": 90220,
            "province_th": "สงขลา",
            "province_en": "Songkhla"
        },
        {
            "zip_code": 90280,
            "province_th": "สงขลา",
            "province_en": "Songkhla"
        },
        {
            "zip_code": 90330,
            "province_th": "สงขลา",
            "province_en": "Songkhla"
        },
        {
            "zip_code": 90115,
            "province_th": "สงขลา",
            "province_en": "Songkhla"
        },
        {
            "zip_code": 91000,
            "province_th": "สตูล",
            "province_en": "Satun"
        },
        {
            "zip_code": 91140,
            "province_th": "สตูล",
            "province_en": "Satun"
        },
        {
            "zip_code": 91160,
            "province_th": "สตูล",
            "province_en": "Satun"
        },
        {
            "zip_code": 91130,
            "province_th": "สตูล",
            "province_en": "Satun"
        },
        {
            "zip_code": 91150,
            "province_th": "สตูล",
            "province_en": "Satun"
        },
        {
            "zip_code": 91110,
            "province_th": "สตูล",
            "province_en": "Satun"
        },
        {
            "zip_code": 91120,
            "province_th": "สตูล",
            "province_en": "Satun"
        },
        {
            "zip_code": 92000,
            "province_th": "ตรัง",
            "province_en": "Trang"
        },
        {
            "zip_code": 92170,
            "province_th": "ตรัง",
            "province_en": "Trang"
        },
        {
            "zip_code": 92190,
            "province_th": "ตรัง",
            "province_en": "Trang"
        },
        {
            "zip_code": 92110,
            "province_th": "ตรัง",
            "province_en": "Trang"
        },
        {
            "zip_code": 92140,
            "province_th": "ตรัง",
            "province_en": "Trang"
        },
        {
            "zip_code": 92120,
            "province_th": "ตรัง",
            "province_en": "Trang"
        },
        {
            "zip_code": 92180,
            "province_th": "ตรัง",
            "province_en": "Trang"
        },
        {
            "zip_code": 92150,
            "province_th": "ตรัง",
            "province_en": "Trang"
        },
        {
            "zip_code": 92130,
            "province_th": "ตรัง",
            "province_en": "Trang"
        },
        {
            "zip_code": 92210,
            "province_th": "ตรัง",
            "province_en": "Trang"
        },
        {
            "zip_code": 92220,
            "province_th": "ตรัง",
            "province_en": "Trang"
        },
        {
            "zip_code": 92160,
            "province_th": "ตรัง",
            "province_en": "Trang"
        },
        {
            "zip_code": 93000,
            "province_th": "พัทลุง",
            "province_en": "Phatthalung"
        },
        {
            "zip_code": 93180,
            "province_th": "พัทลุง",
            "province_en": "Phatthalung"
        },
        {
            "zip_code": 93130,
            "province_th": "พัทลุง",
            "province_en": "Phatthalung"
        },
        {
            "zip_code": 93160,
            "province_th": "พัทลุง",
            "province_en": "Phatthalung"
        },
        {
            "zip_code": 93110,
            "province_th": "พัทลุง",
            "province_en": "Phatthalung"
        },
        {
            "zip_code": 93150,
            "province_th": "พัทลุง",
            "province_en": "Phatthalung"
        },
        {
            "zip_code": 93120,
            "province_th": "พัทลุง",
            "province_en": "Phatthalung"
        },
        {
            "zip_code": 93190,
            "province_th": "พัทลุง",
            "province_en": "Phatthalung"
        },
        {
            "zip_code": 93170,
            "province_th": "พัทลุง",
            "province_en": "Phatthalung"
        },
        {
            "zip_code": 93140,
            "province_th": "พัทลุง",
            "province_en": "Phatthalung"
        },
        {
            "zip_code": 94000,
            "province_th": "ปัตตานี",
            "province_en": "Pattani"
        },
        {
            "zip_code": 94120,
            "province_th": "ปัตตานี",
            "province_en": "Pattani"
        },
        {
            "zip_code": 94180,
            "province_th": "ปัตตานี",
            "province_en": "Pattani"
        },
        {
            "zip_code": 94170,
            "province_th": "ปัตตานี",
            "province_en": "Pattani"
        },
        {
            "zip_code": 94130,
            "province_th": "ปัตตานี",
            "province_en": "Pattani"
        },
        {
            "zip_code": 94190,
            "province_th": "ปัตตานี",
            "province_en": "Pattani"
        },
        {
            "zip_code": 94140,
            "province_th": "ปัตตานี",
            "province_en": "Pattani"
        },
        {
            "zip_code": 94110,
            "province_th": "ปัตตานี",
            "province_en": "Pattani"
        },
        {
            "zip_code": 94220,
            "province_th": "ปัตตานี",
            "province_en": "Pattani"
        },
        {
            "zip_code": 94150,
            "province_th": "ปัตตานี",
            "province_en": "Pattani"
        },
        {
            "zip_code": 94160,
            "province_th": "ปัตตานี",
            "province_en": "Pattani"
        },
        {
            "zip_code": 94230,
            "province_th": "ปัตตานี",
            "province_en": "Pattani"
        },
        {
            "zip_code": 95000,
            "province_th": "ยะลา",
            "province_en": "Yala"
        },
        {
            "zip_code": 95160,
            "province_th": "ยะลา",
            "province_en": "Yala"
        },
        {
            "zip_code": 95110,
            "province_th": "ยะลา",
            "province_en": "Yala"
        },
        {
            "zip_code": 95130,
            "province_th": "ยะลา",
            "province_en": "Yala"
        },
        {
            "zip_code": 95150,
            "province_th": "ยะลา",
            "province_en": "Yala"
        },
        {
            "zip_code": 95170,
            "province_th": "ยะลา",
            "province_en": "Yala"
        },
        {
            "zip_code": 95120,
            "province_th": "ยะลา",
            "province_en": "Yala"
        },
        {
            "zip_code": 95140,
            "province_th": "ยะลา",
            "province_en": "Yala"
        },
        {
            "zip_code": 96000,
            "province_th": "นราธิวาส",
            "province_en": "Narathiwat"
        },
        {
            "zip_code": 96110,
            "province_th": "นราธิวาส",
            "province_en": "Narathiwat"
        },
        {
            "zip_code": 96170,
            "province_th": "นราธิวาส",
            "province_en": "Narathiwat"
        },
        {
            "zip_code": 96180,
            "province_th": "นราธิวาส",
            "province_en": "Narathiwat"
        },
        {
            "zip_code": 96130,
            "province_th": "นราธิวาส",
            "province_en": "Narathiwat"
        },
        {
            "zip_code": 96220,
            "province_th": "นราธิวาส",
            "province_en": "Narathiwat"
        },
        {
            "zip_code": 96150,
            "province_th": "นราธิวาส",
            "province_en": "Narathiwat"
        },
        {
            "zip_code": 96210,
            "province_th": "นราธิวาส",
            "province_en": "Narathiwat"
        },
        {
            "zip_code": 96160,
            "province_th": "นราธิวาส",
            "province_en": "Narathiwat"
        },
        {
            "zip_code": 96190,
            "province_th": "นราธิวาส",
            "province_en": "Narathiwat"
        },
        {
            "zip_code": 96120,
            "province_th": "นราธิวาส",
            "province_en": "Narathiwat"
        },
        {
            "zip_code": 96140,
            "province_th": "นราธิวาส",
            "province_en": "Narathiwat"
        },
        {
            "zip_code": 38000,
            "province_th": "บึงกาฬ",
            "province_en": "buogkan"
        },
        {
            "zip_code": 38150,
            "province_th": "บึงกาฬ",
            "province_en": "buogkan"
        },
        {
            "zip_code": 38170,
            "province_th": "บึงกาฬ",
            "province_en": "buogkan"
        },
        {
            "zip_code": 38180,
            "province_th": "บึงกาฬ",
            "province_en": "buogkan"
        },
        {
            "zip_code": 38210,
            "province_th": "บึงกาฬ",
            "province_en": "buogkan"
        },
        {
            "zip_code": 38220,
            "province_th": "บึงกาฬ",
            "province_en": "buogkan"
        },
        {
            "zip_code": 38190,
            "province_th": "บึงกาฬ",
            "province_en": "buogkan"
        }
    ]
}